id,container_id,port_name,city,state,unlocode,facility,latitude,longitude
1071,OOCU8457756,Long Beach,Long Beach,United States,,,33.766666666666666,33.766666666666666
1082,OOLU9802679,"LOS ANGELES, CA (US)",Los Angeles,United States,,,34.0522342,34.0522342
3752,HMMU6448841,"LOS ANGELES, CA",Los Angeles,United States,,,34.0522342,34.0522342
3756,TLLU5287970,"LONG BEACH, CA,UNITED STATES",Long Beach,United States,,,33.766666666666666,33.766666666666666
3759,KOCU4022895,"LOS ANGELES, CA,UNITED STATES",Los Angeles,United States,,,34.0522342,34.0522342
5927,FFAU1947373,"LONG BEACH, CA, USA",Long Beach,United States,,,33.766666666666666,33.766666666666666
9278,BMOU5098247,"LOS ANGELES, CA,UNITED STATES",Los Angeles,United States,,,34.0522342,34.0522342
9279,CSNU7871056,"Long Beach, Los Angeles, California, United States",Long Beach,United States,,,33.766666666666666,33.766666666666666
9280,TGHU6783981,"Long Beach, Los Angeles, California, United States",Long Beach,United States,,,33.766666666666666,33.766666666666666
9286,KKTU7821103,"LOS ANGELES, CA,UNITED STATES",Los Angeles,United States,,,34.0522342,34.0522342
13327,KOCU4193389,"LOS ANGELES, CA, US",Los Angeles,United States,,,34.0522342,34.0522342
13363,GESU5674242,"HO CHI MINH CITY, VN",Ho Chi Minh City,Vietnam,,,10.766666666666667,10.766666666666667
15987,BSIU2897250,"LOS ANGELES, CA,UNITED STATES",Los Angeles,United States,,,34.0522342,34.0522342
15988,FDCU0568290,"LOS ANGELES, CA,UNITED STATES",Los Angeles,United States,,,34.0522342,34.0522342
18966,CAIU7667960,"LOS ANGELES, CA (US)",Los Angeles,United States,,,34.0522342,34.0522342
21315,DFSU6265799,"LOS ANGELES, CA",Los Angeles,United States,,,34.0522342,34.0522342
21351,TCNU7409172,"LOS ANGELES, CA (US)",Los Angeles,United States,,,34.0522342,34.0522342
24784,KOCU4022895,"LOS ANGELES, CA (US)",Los Angeles,United States,,,34.0522342,34.0522342
28116,CMAU6476811,"LOS ANGELES, CA, US",Los Angeles,United States,,,34.0522342,34.0522342
31482,TRHU4027971,"LOS ANGELES, CA ,UNITED STATES",Los Angeles,United States,YTI (YUSEN TERMINAL INTL),,34.0522342,34.0522342
31557,OOLU8616474,"LOS ANGELES, CA",Los Angeles,United States,,,34.0522342,34.0522342
33684,GAOU6357737,"LOS ANGELES, CA (US)",Los Angeles,United States,,,34.0522342,34.0522342
37336,OOLU7534812,LONG BEACH,Long Beach,United States,,,33.766666666666666,33.766666666666666
39559,HMMU6294290,"LOS ANGELES, CA ,UNITED STATES",Los Angeles,United States,YTI (YUSEN TERMINAL INTL),,34.0522342,34.0522342
39597,OOLU8929524,"LONG BEACH, CA,UNITED STATES",Long Beach,United States,,,33.766666666666666,33.766666666666666
39616,CSNU7230330,"Los Angeles, California, United States",Los Angeles,United States,,,34.0522342,34.0522342
39897,MOAU0567013,"Los Angeles, California, United States",Los Angeles,United States,,,34.0522342,34.0522342
39901,CSNU6307592,Long Beach,Long Beach,United States,,,33.766666666666666,33.766666666666666
44130,TCNU2861209,Long Beach,Long Beach,United States,,,33.766666666666666,33.766666666666666
44345,SLSU8005843,"LONG BEACH, CA",Long Beach,United States,,,33.766666666666666,33.766666666666666
44350,FDCU0203332,"LONG BEACH, CA",Long Beach,United States,,,33.766666666666666,33.766666666666666
51284,OOCU7519679,"LONG BEACH, CA ,UNITED STATES",Long Beach,United States,ITS (INTL TRANSPORTATION SERVICES),,33.766666666666666,33.766666666666666
51420,CCLU5275424,"LONG BEACH, CA ,UNITED STATES",Long Beach,United States,ITS (INTL TRANSPORTATION SERVICES),,33.766666666666666,33.766666666666666
51441,DFSU7284047,"LOS ANGELES, CA,UNITED STATES",Los Angeles,United States,,,34.0522342,34.0522342
55442,TRHU7272118,"LONG BEACH, CA,UNITED STATES",Long Beach,United States,,,33.766666666666666,33.766666666666666
57259,BMOU6597174,"LOS ANGELES, CA, UNITED STATES",Los Angeles,United States,TRAPAC LOS ANGELES,,34.0522342,34.0522342
59423,CCLU5275424,"Long Beach, California, United States",Long Beach,United States,,,33.766666666666666,33.766666666666666
59448,DFSU7284047,"LOS ANGELES, CA (US)",Los Angeles,United States,,,34.0522342,34.0522342
59461,OOCU8150420,"LONG BEACH, CA, UNITED STATES",Long Beach,United States,,,33.766666666666666,33.766666666666666
61273,TEMU7306765,"LOS ANGELES, CA, United States",Los Angeles,United States,,,34.0522342,34.0522342
61461,TCNU2340453,"LOS ANGELES, CA (US)",Los Angeles,United States,,,34.0522342,34.0522342
61471,HMMU9035862,"LOS ANGELES, CA (US)",Los Angeles,United States,,,34.0522342,34.0522342
62370,FDCU0203332,"LONG BEACH, US",Long Beach,United States,,,33.766666666666666,33.766666666666666
62375,MSCU5547065,"LONG BEACH, US",Long Beach,United States,,,33.766666666666666,33.766666666666666
62388,TGCU0234585,"LONG BEACH, US",Long Beach,United States,,,33.766666666666666,33.766666666666666
63219,SMLU7990160,"Seattle, King, Washington, United States",Seattle,United States,,,47.6062095,47.6062095
63220,TGHU8920321,"LOS ANGELES, CA",Los Angeles,United States,,,34.0522342,34.0522342
63252,DFSU6018952,"LONG BEACH, US",Long Beach,United States,,,33.766666666666666,33.766666666666666
63377,TEMU7445020,"LOS ANGELES, CA (US)",Los Angeles,United States,,,34.0522342,34.0522342
63378,HAMU1208272,"NEW YORK, NY",New York,United States,,,40.7,40.7
63411,TRHU7272118,"Long Beach, California, United States",Long Beach,United States,,,33.766666666666666,33.766666666666666
63417,MEDU2952100,"LONG BEACH, US",Long Beach,United States,,,33.766666666666666,33.766666666666666
64533,HMMU6006860,"LOS ANGELES, CA",Los Angeles,United States,,,34.0522342,34.0522342
1157,DFSU7347309,Los Angeles,Los Angeles,United States,,,34.0522342,34.0522342
1171,CSNU1910983,"LOS ANGELES, CA (US)",Los Angeles,United States,,,34.0522342,34.0522342
1215,DRYU9538514,"LOS ANGELES, CA (US)",Los Angeles,United States,,,34.0522342,34.0522342
1218,HDMU6308034,"LOS ANGELES, CA (US)",Los Angeles,United States,,,34.0522342,34.0522342
4239,KOCU4219415,"LOS ANGELES, CA",Los Angeles,United States,,,34.0522342,34.0522342
4249,HDMU6675298,"LOS ANGELES, CA (US)",Los Angeles,United States,,,34.0522342,34.0522342
4251,BMOU4167641,"LOS ANGELES, CA",Los Angeles,United States,,,34.0522342,34.0522342
4253,KOCU4745322,"LOS ANGELES, CA",Los Angeles,United States,,,34.0522342,34.0522342
6429,CBHU9478517,Los Angeles,Los Angeles,United States,,,34.0522342,34.0522342
6457,CSLU6163820,"LOS ANGELES, CA (US)",Los Angeles,United States,,,34.0522342,34.0522342
9554,BSIU9813204,"Long Beach, Los Angeles, California, United States",Long Beach,United States,,,33.766666666666666,33.766666666666666
13550,MRKU7152591,Long Beach,Long Beach,United States,,,33.766666666666666,33.766666666666666
16332,ZCSU8957909,"LOS ANGELES, CA, United States",Los Angeles,United States,,,34.0522342,34.0522342
16505,BMOU4577672,"LOS ANGELES, CA, USA",Los Angeles,United States,,,34.0522342,34.0522342
19257,CAIU9970194,"LOS ANGELES, CA (US)",Los Angeles,United States,,,34.0522342,34.0522342
22309,HDMU6675298,"Los Angeles, California, United States",Los Angeles,United States,,,34.0522342,34.0522342
22312,BMOU4167641,"LOS ANGELES, CA ,UNITED STATES",Los Angeles,United States,YTI (YUSEN TERMINAL INTL),,34.0522342,34.0522342
24804,ZCSU7964734,"Long Beach, Los Angeles, California, United States",Long Beach,United States,,,33.766666666666666,33.766666666666666
24805,KKFU8140183,"LOS ANGELES, CA,UNITED STATES",Los Angeles,United States,,,34.0522342,34.0522342
24806,UACU6040707,"LOS ANGELES, CA (US)",Los Angeles,United States,,,34.0522342,34.0522342
24807,SLSU8030260,"LOS ANGELES, CA (US)",Los Angeles,United States,,,34.0522342,34.0522342
24836,BEAU5340130,"LOS ANGELES, CA,UNITED STATES",Los Angeles,United States,,,34.0522342,34.0522342
24837,TCLU1487695,"LOS ANGELES, CA,UNITED STATES",Los Angeles,United States,,,34.0522342,34.0522342
28191,APHU4640770,"LOS ANGELES, CA, US",Los Angeles,United States,,,34.0522342,34.0522342
31718,CBHU9580581,"LOS ANGELES, CA",Los Angeles,United States,,,34.0522342,34.0522342
31824,FSCU8535820,"LOS ANGELES, CA (US)",Los Angeles,United States,,,34.0522342,34.0522342
31872,CBHU8964284,"LOS ANGELES, CA (US)",Los Angeles,United States,,,34.0522342,34.0522342
31878,CCLU7167331,"LOS ANGELES, CA (US)",Los Angeles,United States,,,34.0522342,34.0522342
34937,BMOU4167641,"LOS ANGELES, CA (US)",Los Angeles,United States,,,34.0522342,34.0522342
37755,HLXU8094522,"LONG BEACH, CA ,UNITED STATES",Long Beach,United States,THREE HARBORS RIVERS TRUCKING - LONG BEACH (DEPOT),,33.766666666666666,33.766666666666666
40084,TCNU6567002,"LOS ANGELES, CA ,UNITED STATES",Los Angeles,United States,TRAPAC LOS ANGELES,,34.0522342,34.0522342
44560,CSNU6056727,LONG BEACH,Long Beach,United States,,,33.766666666666666,33.766666666666666
49174,OOCU8150420,Long Beach,Long Beach,United States,,,33.766666666666666,33.766666666666666
49202,CBHU5520060,"Los Angeles, California, United States",Los Angeles,United States,,,34.0522342,34.0522342
51749,CBHU9580581,"Los Angeles, California, United States",Los Angeles,United States,,,34.0522342,34.0522342
55605,CSNU7230330,"Los Angeles, Los Angeles, California, United States",Los Angeles,United States,,,34.0522342,34.0522342
57644,BEAU5340130,"LOS ANGELES, CA, UNITED STATES",Los Angeles,United States,TRAPAC LOS ANGELES,,34.0522342,34.0522342
57697,FFAU1478825,"LAEM CHABANG, THAILAND",Laem Chabang,Thailand,,,13.06530238577126,13.06530238577126
57744,TRHU4027971,"LOS ANGELES, CA, UNITED STATES",Los Angeles,United States,,,34.0522342,34.0522342
57747,TCNU6567002,"LOS ANGELES, CA, UNITED STATES",Los Angeles,United States,YTI (YUSEN TERMINAL INTL),,34.0522342,34.0522342
57767,CBHU5520060,"LOS ANGELES, CA, UNITED STATES",Los Angeles,United States,TRAPAC LOS ANGELES,,34.0522342,34.0522342
57864,OOCU8457756,"LONG BEACH, CA, UNITED STATES",Long Beach,United States,ITS (INTL TRANSPORTATION SERVICES),,33.766666666666666,33.766666666666666
57938,CSNU7498425,"Los Angeles, California, United States",Los Angeles,United States,,,34.0522342,34.0522342
57949,MOAU0567013,"LOS ANGELES, CA, UNITED STATES",Los Angeles,United States,,,34.0522342,34.0522342
57965,BEAU5318990,"LONDON GATEWAY PORT, ESSEX, UNITED KINGDOM",Corringham,United Kingdom,,,51.5056652038273,51.5056652038273
60158,CXDU2031887,"LONG BEACH, CA, USA",Long Beach,United States,,,33.766666666666666,33.766666666666666
61514,OOCU7519679,Long Beach,Long Beach,United States,,,33.766666666666666,33.766666666666666
61533,TLLU4428333,"Long Beach, California, United States",Long Beach,United States,,,33.766666666666666,33.766666666666666
62571,TCNU7287264,"LOS ANGELES, CA, USA",Los Angeles,United States,,,34.0522342,34.0522342
63928,HLXU8376296,"NEW YORK, NY",New York,United States,,,40.7,40.7
64898,CSNU8060393,Los Angeles,Los Angeles,United States,,,34.0522342,34.0522342
64941,BMOU5234050,"Long Beach, California, United States",Long Beach,United States,,,33.766666666666666,33.766666666666666
1911,FFAU2879231,"LOS ANGELES, CA",Los Angeles,United States,,,34.0522342,34.0522342
1981,CSLU1532443,"Los Angeles, Los Angeles, California, United States",Los Angeles,United States,,,34.0522342,34.0522342
2089,OOLU9802679,"LOS ANGELES, CA",Los Angeles,United States,,,34.0522342,34.0522342
2094,TCNU8943583,LONG BEACH,Long Beach,United States,,,33.766666666666666,33.766666666666666
2096,MEDU2952100,"LONG BEACH, CA",Long Beach,United States,,,33.766666666666666,33.766666666666666
2098,CBHU9478517,"LOS ANGELES, CA, USA",Los Angeles,United States,,,34.0522342,34.0522342
2122,CSLU6163820,Los Angeles,Los Angeles,United States,,,34.0522342,34.0522342
2124,CSNU7498425,Los Angeles,Los Angeles,United States,,,34.0522342,34.0522342
2130,BMOU4749750,"LONG BEACH, CA ,UNITED STATES",Long Beach,United States,ITS (INTL TRANSPORTATION SERVICES),,33.766666666666666,33.766666666666666
4386,EGHU9381195,"LOS ANGELES, CA (US)",Los Angeles,United States,,,34.0522342,34.0522342
6490,TGHU8926741,"HALIFAX, NS",Halifax,Canada,,,44.64876350000001,44.64876350000001
9593,FCIU8815458,"LONG BEACH, CA,UNITED STATES",Long Beach,United States,,,33.766666666666666,33.766666666666666
9759,CSNU7637011,"Long Beach, California, United States",Long Beach,United States,,,33.766666666666666,33.766666666666666
9761,OOLU8448663,"Long Beach, California, United States",Long Beach,United States,,,33.766666666666666,33.766666666666666
9763,DFSU6317383,"Long Beach, California, United States",Long Beach,United States,,,33.766666666666666,33.766666666666666
9781,MEDU2952100,LONG BEACH,Long Beach,United States,,,33.766666666666666,33.766666666666666
9819,BMOU4749750,"LONG BEACH, CA,UNITED STATES",Long Beach,United States,,,33.766666666666666,33.766666666666666
16767,CBHU9441919,"LOS ANGELES, CA (US)",Los Angeles,United States,,,34.0522342,34.0522342
19684,HDMU6765909,"LOS ANGELES, CA,UNITED STATES",Los Angeles,United States,,,34.0522342,34.0522342
19919,CBHU9478517,"LOS ANGELES, CA",Los Angeles,United States,,,34.0522342,34.0522342
19923,KOCU4884570,"LOS ANGELES, CA,UNITED STATES",Los Angeles,United States,,,34.0522342,34.0522342
19929,KOCU4745322,"LOS ANGELES, CA, US",Los Angeles,United States,,,34.0522342,34.0522342
19932,HMMU6288229,"LOS ANGELES, CA",Los Angeles,United States,,,34.0522342,34.0522342
19934,HMMU6200325,"LOS ANGELES, CA",Los Angeles,United States,,,34.0522342,34.0522342
19936,HMMU6150991,"LOS ANGELES, CA,UNITED STATES",Los Angeles,United States,,,34.0522342,34.0522342
19942,KOCU4747752,"LOS ANGELES, CA,UNITED STATES",Los Angeles,United States,,,34.0522342,34.0522342
19949,MSCU5547065,"LONG BEACH, CA",Long Beach,United States,UP RAIL - LOS ANGELES {ICTF/OFFDOCK RAMP},,33.766666666666666,33.766666666666666
19967,KOCU5070603,"LOS ANGELES, CA (US)",Los Angeles,United States,,,34.0522342,34.0522342
22371,BMOU5234050,"LONG BEACH, CA",Long Beach,United States,,,33.766666666666666,33.766666666666666
25399,SEGU6873876,"LOS ANGELES, CA, USA",Los Angeles,United States,,,34.0522342,34.0522342
25430,GAOU6357737,"LOS ANGELES, CA",Los Angeles,United States,,,34.0522342,34.0522342
28516,SEGU4870646,Long Beach,Long Beach,United States,,,33.766666666666666,33.766666666666666
28682,CSNU7365649,"LONG BEACH, CA,UNITED STATES",Long Beach,United States,,,33.766666666666666,33.766666666666666
32005,BMOU5098247,"LOS ANGELES, CA ,UNITED STATES",Los Angeles,United States,TRAPAC LOS ANGELES,,34.0522342,34.0522342
32284,SLSU8005843,"LONG BEACH, CA, USA",Long Beach,United States,,,33.766666666666666,33.766666666666666
32288,FDCU0203332,"LONG BEACH, CA, USA",Long Beach,United States,,,33.766666666666666,33.766666666666666
32308,BMOU5035763,"LOS ANGELES, CA",Los Angeles,United States,,,34.0522342,34.0522342
35196,TCNU7409172,"LOS ANGELES, CA",Los Angeles,United States,,,34.0522342,34.0522342
38178,BMOU6597174,"LOS ANGELES, CA,UNITED STATES",Los Angeles,United States,,,34.0522342,34.0522342
38179,CSNU7230330,"LOS ANGELES, CA (US)",Los Angeles,United States,,,34.0522342,34.0522342
38184,TEMU3445084,Long Beach,Long Beach,United States,,,33.766666666666666,33.766666666666666
38186,TCLU9783965,Long Beach,Long Beach,United States,,,33.766666666666666,33.766666666666666
38374,OOCU8457756,LONG BEACH,Long Beach,United States,,,33.766666666666666,33.766666666666666
38444,TGHU9725063,"Long Beach, Los Angeles, California, United States",Long Beach,United States,,,33.766666666666666,33.766666666666666
38451,TGCU0234585,LONG BEACH,Long Beach,United States,,,33.766666666666666,33.766666666666666
38452,MOAU0567013,"LOS ANGELES, CA,UNITED STATES",Los Angeles,United States,,,34.0522342,34.0522342
38453,CSLU6338385,Long Beach,Long Beach,United States,,,33.766666666666666,33.766666666666666
38454,CSNU8060393,"LOS ANGELES, CA (US)",Los Angeles,United States,,,34.0522342,34.0522342
38455,CSNU6307592,"Long Beach, Los Angeles, California, United States",Long Beach,United States,,,33.766666666666666,33.766666666666666
38456,TGBU3129070,Long Beach,Long Beach,United States,,,33.766666666666666,33.766666666666666
40288,MEDU7549680,"LONG BEACH, CA",Long Beach,United States,,,33.766666666666666,33.766666666666666
45885,CSNU7498425,"LOS ANGELES, CA (US)",Los Angeles,United States,,,34.0522342,34.0522342
49525,CAIU4821583,"LONG BEACH, CA ,UNITED STATES",Long Beach,United States,ITS (INTL TRANSPORTATION SERVICES),,33.766666666666666,33.766666666666666
52868,BMOU5035763,"Los Angeles, California, United States",Los Angeles,United States,,,34.0522342,34.0522342
55966,BMOU5234050,"LONG BEACH, CA ,UNITED STATES",Long Beach,United States,ITS (INTL TRANSPORTATION SERVICES),,33.766666666666666,33.766666666666666
56092,CSLU6182287,"LOS ANGELES, CA",Los Angeles,United States,,,34.0522342,34.0522342
2137,OOCU7093407,Los Angeles,Los Angeles,United States,,,34.0522342,34.0522342
2138,OOCU7274874,"Los Angeles, Los Angeles, California, United States",Los Angeles,United States,,,34.0522342,34.0522342
2139,FCIU4831147,"BUSAN, KOREA",Busan,South Korea,,,35.13333333333333,35.13333333333333
2173,CSNU6400160,"LOS ANGELES, CA (US)",Los Angeles,United States,,,34.0522342,34.0522342
2177,CSNU7240127,"LOS ANGELES, CA",Los Angeles,United States,,,34.0522342,34.0522342
2214,KOCU4711868,"LOS ANGELES, CA ,UNITED STATES",Los Angeles,United States,TRAPAC LOS ANGELES,,34.0522342,34.0522342
2243,TCNU7287264,"LOS ANGELES, CA (US)",Los Angeles,United States,,,34.0522342,34.0522342
4817,HMMU6448841,"LOS ANGELES, CA,UNITED STATES",Los Angeles,United States,,,34.0522342,34.0522342
4828,BSIU9813204,"LOS ANGELES, CA,UNITED STATES",Los Angeles,United States,,,34.0522342,34.0522342
4831,FFAU1947373,"LONG BEACH, CA,UNITED STATES",Long Beach,United States,,,33.766666666666666,33.766666666666666
4832,BMOU4138638,"LONG BEACH, CA,UNITED STATES",Long Beach,United States,,,33.766666666666666,33.766666666666666
7049,FFAU1947373,LONG BEACH,Long Beach,United States,,,33.766666666666666,33.766666666666666
10936,BMOU4749750,LONG BEACH,Long Beach,United States,,,33.766666666666666,33.766666666666666
14644,CCLU7729146,"LOS ANGELES, CA (US)",Los Angeles,United States,,,34.0522342,34.0522342
14762,CCLU7167331,LOS ANGELES,Los Angeles,United States,,,34.0522342,34.0522342
17120,BSIU2897250,"LOS ANGELES, CA ,UNITED STATES",Los Angeles,United States,YTI (YUSEN TERMINAL INTL),,34.0522342,34.0522342
19991,BMOU5234050,LONG BEACH,Long Beach,United States,,,33.766666666666666,33.766666666666666
20033,DFSU7347309,"LOS ANGELES, CA, US",Los Angeles,United States,,,34.0522342,34.0522342
20078,CBHU5816262,"LOS ANGELES, CA (US)",Los Angeles,United States,,,34.0522342,34.0522342
20154,TCNU7409172,"LOS ANGELES, CA,UNITED STATES",Los Angeles,United States,,,34.0522342,34.0522342
20166,OOLU8302025,"LOS ANGELES, CA (US)",Los Angeles,United States,,,34.0522342,34.0522342
20210,CBHU9109057,"LOS ANGELES, CA",Los Angeles,United States,,,34.0522342,34.0522342
26021,BMOU5234050,Long Beach,Long Beach,United States,,,33.766666666666666,33.766666666666666
26030,KKFU8140183,"LOS ANGELES, CA ,UNITED STATES",Los Angeles,United States,WBCT (WEST BASIN CONTAINER TERMINAL),,34.0522342,34.0522342
28935,OOCU8150420,"LONG BEACH, CA",Long Beach,United States,,,33.766666666666666,33.766666666666666
32361,OOLU8929524,"LONG BEACH, CA, USA",Long Beach,United States,,,33.766666666666666,33.766666666666666
32386,TCLU1487695,"LOS ANGELES, CA (US)",Los Angeles,United States,,,34.0522342,34.0522342
36368,KKFU7947761,"LONG BEACH, CA,UNITED STATES",Long Beach,United States,,,33.766666666666666,33.766666666666666
36370,KOCU4586977,"LOS ANGELES, CA (US)",Los Angeles,United States,,,34.0522342,34.0522342
36371,BSIU9288071,"LOS ANGELES, CA (US)",Los Angeles,United States,,,34.0522342,34.0522342
36372,HMMU6006860,"Long Beach, Los Angeles, California, United States",Long Beach,United States,,,33.766666666666666,33.766666666666666
36373,HLXU8094522,"LONG BEACH, CA,UNITED STATES",Long Beach,United States,,,33.766666666666666,33.766666666666666
38824,MEDU7549680,LONG BEACH,Long Beach,United States,,,33.766666666666666,33.766666666666666
41065,UACU6040707,"LOS ANGELES, CA,UNITED STATES",Los Angeles,United States,,,34.0522342,34.0522342
41392,OOCU8166051,"Long Beach, Los Angeles, California, United States",Long Beach,United States,,,33.766666666666666,33.766666666666666
41393,BEAU5318990,"LONDON GATEWAY PORT, ESSEX,UNITED KINGDOM",Corringham,United Kingdom,,,51.5056652038273,51.5056652038273
46101,CSLU1532443,"LOS ANGELES, CA",Los Angeles,United States,,,34.0522342,34.0522342
46153,CSNU7365649,Long Beach,Long Beach,United States,,,33.766666666666666,33.766666666666666
46172,OOLU8616474,"LOS ANGELES, CA ,UNITED STATES",Los Angeles,United States,YTI (YUSEN TERMINAL INTL),,34.0522342,34.0522342
46211,OOLU9802679,"LOS ANGELES, CA,UNITED STATES",Los Angeles,United States,,,34.0522342,34.0522342
49886,BMOU6597174,"Los Angeles, Los Angeles, California, United States",Los Angeles,United States,,,34.0522342,34.0522342
53051,CSNU6056727,"Long Beach, California, United States",Long Beach,United States,,,33.766666666666666,33.766666666666666
56096,CBHU5816262,"LOS ANGELES, CA",Los Angeles,United States,,,34.0522342,34.0522342
56102,OOLU1245915,"LOS ANGELES, CA",Los Angeles,United States,,,34.0522342,34.0522342
58036,TCLU4909963,"LONG BEACH, CA, UNITED STATES",Long Beach,United States,ITS (INTL TRANSPORTATION SERVICES),,33.766666666666666,33.766666666666666
60181,BMOU4138638,"LONG BEACH, CA, UNITED STATES",Long Beach,United States,,,33.766666666666666,33.766666666666666
60207,UACU4095254,"HALIFAX, NS",Halifax,Canada,,,44.64876350000001,44.64876350000001
60208,KOCU5066460,"LOS ANGELES, CA",Los Angeles,United States,,,34.0522342,34.0522342
60209,CAIU7492769,"LOS ANGELES, CA",Los Angeles,United States,,,34.0522342,34.0522342
60424,CSNU6563871,"Los Angeles, California, United States",Los Angeles,United States,,,34.0522342,34.0522342
60456,CSNU8060393,"LOS ANGELES, CA",Los Angeles,United States,,,34.0522342,34.0522342
61953,GESU6712706,"LAZARO CARDENAS, MX",Lázaro Cárdenas,Mexico,,,17.95,17.95
62002,CAIU4821583,"LONG BEACH, US",Long Beach,United States,,,33.766666666666666,33.766666666666666
62006,MSMU7448879,"LONG BEACH, US",Long Beach,United States,,,33.766666666666666,33.766666666666666
63218,MSCU5863905,"LONG BEACH, US",Long Beach,United States,,,33.766666666666666,33.766666666666666
2671,NYKU5224851,"LOS ANGELES, CA,UNITED STATES",Los Angeles,United States,,,34.0522342,34.0522342
2672,HMMU6448841,"LOS ANGELES, CA ,UNITED STATES",Los Angeles,United States,WBCT (WEST BASIN CONTAINER TERMINAL),,34.0522342,34.0522342
2674,TLLU5287970,"LONG BEACH, CA",Long Beach,United States,,,33.766666666666666,33.766666666666666
2675,HDMU6765909,"LOS ANGELES, CA",Los Angeles,United States,,,34.0522342,34.0522342
2676,KOCU4022895,"LOS ANGELES, CA",Los Angeles,United States,,,34.0522342,34.0522342
2677,HMMU6294290,"LOS ANGELES, CA",Los Angeles,United States,,,34.0522342,34.0522342
5151,DFSU6018952,"LONG BEACH, CA",Long Beach,United States,,,33.766666666666666,33.766666666666666
5301,OOLU7534812,"Long Beach, California, United States",Long Beach,United States,,,33.766666666666666,33.766666666666666
7690,OOCU7443038,"Los Angeles, California, United States",Los Angeles,United States,,,34.0522342,34.0522342
11248,TCLU8422227,"LONG BEACH, CA ,UNITED STATES",Long Beach,United States,ITS (INTL TRANSPORTATION SERVICES),,33.766666666666666,33.766666666666666
14986,TRHU4736473,"LOS ANGELES, CA (US)",Los Angeles,United States,,,34.0522342,34.0522342
17643,SLSU8005843,"Long Beach, Los Angeles, California, United States",Long Beach,United States,,,33.766666666666666,33.766666666666666
20272,OOCU7093407,"LOS ANGELES, CA,UNITED STATES",Los Angeles,United States,,,34.0522342,34.0522342
20348,OOCU8175834,"LONG BEACH, CA,UNITED STATES",Long Beach,United States,,,33.766666666666666,33.766666666666666
20351,CCLU7729146,"LOS ANGELES, CA",Los Angeles,United States,,,34.0522342,34.0522342
20354,CSNU1910983,"LOS ANGELES, CA,UNITED STATES",Los Angeles,United States,,,34.0522342,34.0522342
22996,CSNU6672701,"LOS ANGELES, CA ,UNITED STATES",Los Angeles,United States,YTI (YUSEN TERMINAL INTL),,34.0522342,34.0522342
23208,TEMU6710290,"NEW YORK, NY ,UNITED STATES",New York,United States,GCT BAYONNE TERMINAL,,40.7,40.7
23209,TRHU7272118,Long Beach,Long Beach,United States,,,33.766666666666666,33.766666666666666
26393,OOCU8487489,"Long Beach, California, United States",Long Beach,United States,,,33.766666666666666,33.766666666666666
29768,SEGU1929144,Long Beach,Long Beach,United States,,,33.766666666666666,33.766666666666666
29782,UACU6040707,"LOS ANGELES, CA",Los Angeles,United States,,,34.0522342,34.0522342
29784,SLSU8030260,"LOS ANGELES, CA",Los Angeles,United States,,,34.0522342,34.0522342
29817,TCLU1487695,"LOS ANGELES, CA",Los Angeles,United States,,,34.0522342,34.0522342
38886,OOLU9173832,"Long Beach, Los Angeles, California, United States",Long Beach,United States,,,33.766666666666666,33.766666666666666
38916,FSCU7088564,"LOS ANGELES, CA (US)",Los Angeles,United States,,,34.0522342,34.0522342
38917,TCNU3849086,"LOS ANGELES, CA (US)",Los Angeles,United States,,,34.0522342,34.0522342
38918,CAIU4821583,LONG BEACH,Long Beach,United States,,,33.766666666666666,33.766666666666666
38919,MSMU7448879,LONG BEACH,Long Beach,United States,,,33.766666666666666,33.766666666666666
38922,TCNU6021264,"LOS ANGELES, CA,UNITED STATES",Los Angeles,United States,,,34.0522342,34.0522342
41879,TCNU6021264,"Los Angeles, Los Angeles, California, United States",Los Angeles,United States,,,34.0522342,34.0522342
46410,TCNU6021264,"LOS ANGELES, CA ,UNITED STATES",Los Angeles,United States,WBCT (WEST BASIN CONTAINER TERMINAL),,34.0522342,34.0522342
50208,OOCU7093407,"Los Angeles, California, United States",Los Angeles,United States,,,34.0522342,34.0522342
53686,MEDU7549680,"LONG BEACH, CA ,UNITED STATES",Long Beach,United States,ITS (INTL TRANSPORTATION SERVICES),,33.766666666666666,33.766666666666666
53803,ZCSU7115568,"LOS ANGELES, CA, United States",Los Angeles,United States,,,34.0522342,34.0522342
56414,FFAU3458664,"Los Angeles, California, United States",Los Angeles,United States,,,34.0522342,34.0522342
58435,BSIU2897250,"LOS ANGELES, CA, UNITED STATES",Los Angeles,United States,,,34.0522342,34.0522342
58439,TCNU5960479,"LONG BEACH, CA, UNITED STATES",Long Beach,United States,,,33.766666666666666,33.766666666666666
58466,TCLU8422227,"LONG BEACH, CA, UNITED STATES",Long Beach,United States,,,33.766666666666666,33.766666666666666
58518,CAIU4821583,"LONG BEACH, CA, UNITED STATES",Long Beach,United States,ITS (INTL TRANSPORTATION SERVICES),,33.766666666666666,33.766666666666666
58524,TCNU6021264,"LOS ANGELES, CA, UNITED STATES",Los Angeles,United States,,,34.0522342,34.0522342
58703,BEAU5456650,"LONG BEACH, CA, UNITED STATES",Long Beach,United States,,,33.766666666666666,33.766666666666666
60488,BMOU5854128,Los Angeles,Los Angeles,United States,,,34.0522342,34.0522342
60541,FFAU2893970,"LOS ANGELES, CA",Los Angeles,United States,,,34.0522342,34.0522342
60542,CSNU7288239,"Los Angeles, California, United States",Los Angeles,United States,,,34.0522342,34.0522342
62110,FFAU1947373,"LONG BEACH, US",Long Beach,United States,,,33.766666666666666,33.766666666666666
62169,TCNU2861209,"LONG BEACH, US",Long Beach,United States,,,33.766666666666666,33.766666666666666
62350,CCLU4992375,"LONG BEACH, US",Long Beach,United States,,,33.766666666666666,33.766666666666666
62362,HMMU9035862,"LOS ANGELES, CA",Los Angeles,United States,,,34.0522342,34.0522342
62364,SLSU8005843,"LONG BEACH, US",Long Beach,United States,,,33.766666666666666,33.766666666666666
26,KOCU4196285,"BUSAN, KOREA",Busan,South Korea,,,35.13333333333333,35.13333333333333
27,TGBU5828056,"HO CHI MINH CITY, VN",Ho Chi Minh City,Vietnam,,,10.766666666666667,10.766666666666667
28,CSLU6163820,LOS ANGELES,Los Angeles,United States,,,34.0522342,34.0522342
29,CSNU7498425,"LOS ANGELES, CA",Los Angeles,United States,,,34.0522342,34.0522342
30,MRKU0389827,"Sydney, New South Wales, Australia",Sydney,Australia,SYDNEY DPW TERMINAL,,-33.85,-33.85
31,TEMU8595180,"LOS ANGELES, CA, USA",Los Angeles,United States,,,34.0522342,34.0522342
33,TCNU9142660,"NEW YORK, NY,UNITED STATES",New York,United States,,,40.7,40.7
34,YMMU1228688,"LONG BEACH, CA, USA",Long Beach,United States,,,33.766666666666666,33.766666666666666
35,CSNU7812330,"Long Beach, Los Angeles, California, United States",Long Beach,United States,,,33.766666666666666,33.766666666666666
36,TEMU0736867,"ROTTERDAM, Netherlands",Rotterdam,Netherlands,,,51.916666666666664,51.916666666666664
37,BMOU4749750,"LONG BEACH, CA, USA",Long Beach,United States,,,33.766666666666666,33.766666666666666
38,BMOU5035763,Los Angeles,Los Angeles,United States,,,34.0522342,34.0522342
39,KOCU5070603,"Busan, Busan, South Korea",Busan,South Korea,,,35.13333333333333,35.13333333333333
40,GVCU5089127,"Sydney, New South Wales, Australia",Sydney,Australia,SYDNEY DPW TERMINAL,,-33.85,-33.85
42,DFSU6679443,LONG BEACH,Long Beach,United States,,,33.766666666666666,33.766666666666666
46,INKU2382856,LONG BEACH,Long Beach,United States,,,33.766666666666666,33.766666666666666
48,TCNU4573449,"LOS ANGELES, CA (US)",Los Angeles,United States,,,34.0522342,34.0522342
49,MSCU5248038,LONG BEACH,Long Beach,United States,,,33.766666666666666,33.766666666666666
50,SZLU9560138,"HALIFAX, NS,CANADA",Halifax,Canada,,,44.64876350000001,44.64876350000001
51,MEDU6555930,LONG BEACH,Long Beach,United States,,,33.766666666666666,33.766666666666666
53,MSCU1268695,LONG BEACH,Long Beach,United States,,,33.766666666666666,33.766666666666666
54,HLBU2194717,"HALIFAX, NS",Halifax,Canada,,,44.64876350000001,44.64876350000001
55,TCLU1529677,"LOS ANGELES, CA,UNITED STATES",Los Angeles,United States,,,34.0522342,34.0522342
56,SEGU4468196,"NEW YORK, NY,UNITED STATES",New York,United States,,,40.7,40.7
57,GCXU2210170,"NEW YORK, NY,UNITED STATES",New York,United States,,,40.7,40.7
58,TCNU1488934,"HALIFAX, NS",Halifax,Canada,,,44.64876350000001,44.64876350000001
59,TLLU4443549,"LOS ANGELES (CA), CHINA. PEOPLE'S REPUBLIC",Washington,United States,,,38.9428097,38.9428097
60,TGHU9708791,"LOS ANGELES (CA), CHINA. PEOPLE'S REPUBLIC",Washington,United States,,,38.9428097,38.9428097
61,ZCSU7106355,"LOS ANGELES (CA), CHINA. PEOPLE'S REPUBLIC",Washington,United States,,,38.9428097,38.9428097
62,TGBU7240673,"LOS ANGELES (CA), CHINA. PEOPLE'S REPUBLIC",Washington,United States,,,38.9428097,38.9428097
63,ZCSU7381803,"LOS ANGELES (CA), CHINA. PEOPLE'S REPUBLIC",Washington,United States,,,38.9428097,38.9428097
64,TCLU5458442,"LOS ANGELES, CA,UNITED STATES",Los Angeles,United States,,,34.0522342,34.0522342
65,TCNU4564914,"LOS ANGELES (CA), CHINA. PEOPLE'S REPUBLIC",Washington,United States,,,38.9428097,38.9428097
66,NYKU4627364,"LONG BEACH, CA,UNITED STATES",Long Beach,United States,,,33.766666666666666,33.766666666666666
67,NYKU5238686,"LONG BEACH, CA,UNITED STATES",Long Beach,United States,,,33.766666666666666,33.766666666666666
68,AXIU1365550,"LONG BEACH, CA,UNITED STATES",Long Beach,United States,,,33.766666666666666,33.766666666666666
70,UACU5342430,"HALIFAX, NS",Halifax,Canada,,,44.64876350000001,44.64876350000001
72,CSLU6182287,Los Angeles,Los Angeles,United States,,,34.0522342,34.0522342
73,CBHU5816262,Los Angeles,Los Angeles,United States,,,34.0522342,34.0522342
74,BEAU2044860,Los Angeles,Los Angeles,United States,,,34.0522342,34.0522342
75,OOCU7443038,Los Angeles,Los Angeles,United States,,,34.0522342,34.0522342
76,OOLU1245915,Los Angeles,Los Angeles,United States,,,34.0522342,34.0522342
77,CCLU7975366,Los Angeles,Los Angeles,United States,,,34.0522342,34.0522342
78,DFSU7284047,Los Angeles,Los Angeles,United States,,,34.0522342,34.0522342
79,CAIU8016495,NEW YORK,New York,United States,,,40.7,40.7
80,TGCU5008699,NEW YORK,New York,United States,,,40.7,40.7
81,TRHU6250958,NEW YORK,New York,United States,,,40.7,40.7
85,TRHU2656450,"LOS ANGELES, CA,UNITED STATES",Los Angeles,United States,,,34.0522342,34.0522342
86,CAIU7405595,"LONG BEACH, CA",Long Beach,United States,,,33.766666666666666,33.766666666666666
2986,FCIU8815458,"LONG BEACH, CA ,UNITED STATES",Long Beach,United States,UP RAIL - ICTF (INTL CONTAINER TRANSFER FACILITY),,33.766666666666666,33.766666666666666
5445,CSLU6182287,"LOS ANGELES, CA (US)",Los Angeles,United States,,,34.0522342,34.0522342
5448,CBHU5816262,"LOS ANGELES, CA,UNITED STATES",Los Angeles,United States,,,34.0522342,34.0522342
5453,OOLU1245915,"LOS ANGELES, CA (US)",Los Angeles,United States,,,34.0522342,34.0522342
8034,EMCU9695950,"LOS ANGELES, CA (US)",Los Angeles,United States,,,34.0522342,34.0522342
12080,BMOU5234050,"Long Beach, Los Angeles, California, United States",Long Beach,United States,,,33.766666666666666,33.766666666666666
15430,BMOU5234050,"LONG BEACH, CA,UNITED STATES",Long Beach,United States,,,33.766666666666666,33.766666666666666
15637,OOLU9802679,Los Angeles,Los Angeles,United States,,,34.0522342,34.0522342
18260,TCNU5960479,"LONG BEACH, CA,UNITED STATES",Long Beach,United States,,,33.766666666666666,33.766666666666666
20761,CBHU8964284,"LOS ANGELES, CA",Los Angeles,United States,,,34.0522342,34.0522342
20815,CCLU4918887,"LOS ANGELES, CA",Los Angeles,United States,,,34.0522342,34.0522342
23793,OOCU8457756,"LONG BEACH, CA,UNITED STATES",Long Beach,United States,,,33.766666666666666,33.766666666666666
26926,HMMU6448841,"LOS ANGELES, CA (US)",Los Angeles,United States,,,34.0522342,34.0522342
27200,BMOU4577672,"LOS ANGELES, CA,UNITED STATES",Los Angeles,United States,,,34.0522342,34.0522342
31174,CSLU1532443,"LOS ANGELES, CA (US)",Los Angeles,United States,,,34.0522342,34.0522342
33599,BMOU4577672,"LOS ANGELES, CA, US",Los Angeles,United States,,,34.0522342,34.0522342
33604,TCNU6283916,"LOS ANGELES, CA ,UNITED STATES",Los Angeles,United States,TRAPAC LOS ANGELES,,34.0522342,34.0522342
36746,TLLU4428333,"LONG BEACH, CA",Long Beach,United States,,,33.766666666666666,33.766666666666666
36800,BEAU5340130,"LOS ANGELES, CA ,UNITED STATES",Los Angeles,United States,YTI (YUSEN TERMINAL INTL),,34.0522342,34.0522342
39257,CBHU9418020,"LOS ANGELES, CA ,UNITED STATES",Los Angeles,United States,TRAPAC LOS ANGELES,,34.0522342,34.0522342
39473,KOCU4219415,"LOS ANGELES, CA (US)",Los Angeles,United States,,,34.0522342,34.0522342
42507,BMOU4749750,"LONG BEACH, CA",Long Beach,United States,UP RAIL - LOS ANGELES {ICTF/OFFDOCK RAMP},,33.766666666666666,33.766666666666666
48878,OOLU8302025,"LOS ANGELES, CA,UNITED STATES",Los Angeles,United States,,,34.0522342,34.0522342
48972,CSLU6163820,"Los Angeles, California, United States",Los Angeles,United States,,,34.0522342,34.0522342
51225,CCLU4992375,Long Beach,Long Beach,United States,,,33.766666666666666,33.766666666666666
54480,CSNU6056727,Long Beach,Long Beach,United States,,,33.766666666666666,33.766666666666666
54522,DFSU6265799,"LOS ANGELES, CA (US)",Los Angeles,United States,,,34.0522342,34.0522342
54673,KOCU4446260,"LOS ANGELES, CA ,UNITED STATES",Los Angeles,United States,TRAPAC LOS ANGELES,,34.0522342,34.0522342
56791,BMOU5098247,"LOS ANGELES, CA, UNITED STATES",Los Angeles,United States,,,34.0522342,34.0522342
56812,TEMU6023138,"LOS ANGELES, CA, United States",Los Angeles,United States,,,34.0522342,34.0522342
1,TCNU2861209,"LONG BEACH, CA ,UNITED STATES",Long Beach,United States,ITS (INTL TRANSPORTATION SERVICES),,33.766666666666666,33.766666666666666
2,DFSU6018952,"LONG BEACH, CA ,UNITED STATES",Long Beach,United States,ITS (INTL TRANSPORTATION SERVICES),,33.766666666666666,33.766666666666666
3,DFSU7286820,"Vancouver, British Columbia, Canada",Vancouver,Canada,,,49.2827291,49.2827291
4,CBHU8760130,"Singapore, Singapore",Singapore,Singapore,,,1.271978728313698,1.271978728313698
5,OOCU7953920,"Savannah, Chatham, Georgia, United States",Savannah,United States,,,32.0808989,32.0808989
7,FFAU1456889,"Long Beach, Los Angeles, California, United States",Long Beach,United States,,,33.766666666666666,33.766666666666666
8,OOLU9046252,"Long Beach, Los Angeles, California, United States",Long Beach,United States,,,33.766666666666666,33.766666666666666
9,OOLU9183168,"Long Beach, Los Angeles, California, United States",Long Beach,United States,,,33.766666666666666,33.766666666666666
10,KOCU4219415,"Long Beach, Los Angeles, California, United States",Long Beach,United States,,,33.766666666666666,33.766666666666666
11,TCNU8943583,"LONG BEACH, CA ,UNITED STATES",Long Beach,United States,ITS (INTL TRANSPORTATION SERVICES),,33.766666666666666,33.766666666666666
12,MEDU2952100,"LONG BEACH, CA, USA",Long Beach,United States,,,33.766666666666666,33.766666666666666
13,CBHU9478517,"LOS ANGELES, CA (US)",Los Angeles,United States,,,34.0522342,34.0522342
14,CXDU1475824,"ROTTERDAM,NETHERLANDS",Rotterdam,Netherlands,,,51.916666666666664,51.916666666666664
15,KOCU4884570,"BUSAN, KOREA",Busan,South Korea,,,35.13333333333333,35.13333333333333
16,KOCU5120160,"LOS ANGELES, CA",Los Angeles,United States,,,34.0522342,34.0522342
17,HDMU6675298,"LOS ANGELES, CA",Los Angeles,United States,,,34.0522342,34.0522342
18,BMOU4167641,"LOS ANGELES, CA,UNITED STATES",Los Angeles,United States,,,34.0522342,34.0522342
19,KOCU4745322,"LOS ANGELES, CA (US)",Los Angeles,United States,,,34.0522342,34.0522342
20,HMMU6288229,"BUSAN, KOREA",Busan,South Korea,,,35.13333333333333,35.13333333333333
21,HMMU6200325,"BUSAN, KOREA",Busan,South Korea,,,35.13333333333333,35.13333333333333
22,HMMU6150991,"BUSAN, KOREA",Busan,South Korea,,,35.13333333333333,35.13333333333333
23,BMOU4577672,"LOS ANGELES, CA",Los Angeles,United States,,,34.0522342,34.0522342
24,TCNU6283916,"LOS ANGELES, CA",Los Angeles,United States,,,34.0522342,34.0522342
25,YMMU6053685,"LONG BEACH, CA, USA",Long Beach,United States,,,33.766666666666666,33.766666666666666
87,HMMU6008101,"LONG BEACH, CA",Long Beach,United States,,,33.766666666666666,33.766666666666666
88,BSIU9264228,"LONG BEACH, CA",Long Beach,United States,,,33.766666666666666,33.766666666666666
89,KOCU4209016,"LONG BEACH, CA",Long Beach,United States,,,33.766666666666666,33.766666666666666
90,HMMU6243292,"LONG BEACH, CA",Long Beach,United States,,,33.766666666666666,33.766666666666666
91,HMMU6084523,"LONG BEACH, CA",Long Beach,United States,,,33.766666666666666,33.766666666666666
92,TCNU5067609,"LONG BEACH, CA",Long Beach,United States,,,33.766666666666666,33.766666666666666
93,KOCU4318254,"LONG BEACH, CA",Long Beach,United States,,,33.766666666666666,33.766666666666666
94,KOCU4178194,"LONG BEACH, CA",Long Beach,United States,,,33.766666666666666,33.766666666666666
95,FCIU9234632,"NEW YORK, NY,UNITED STATES",New York,United States,,,40.7,40.7
96,FDCU0634031,"NEW YORK, NY,UNITED STATES",New York,United States,,,40.7,40.7
97,TRLU7202269,Los Angeles,Los Angeles,United States,,,34.0522342,34.0522342
99,TRHU4177333,"LONG BEACH, CA,UNITED STATES",Long Beach,United States,,,33.766666666666666,33.766666666666666
100,KKFU7928885,"LONG BEACH, CA,UNITED STATES",Long Beach,United States,,,33.766666666666666,33.766666666666666
101,NYKU4369465,"LONG BEACH, CA,UNITED STATES",Long Beach,United States,,,33.766666666666666,33.766666666666666
102,SEGU4990765,"LONG BEACH, CA,UNITED STATES",Long Beach,United States,,,33.766666666666666,33.766666666666666
105,CAIU8967196,LONG BEACH,Long Beach,United States,,,33.766666666666666,33.766666666666666
106,TCNU6502892,"LOS ANGELES, CA,UNITED STATES",Los Angeles,United States,,,34.0522342,34.0522342
107,KKFU7755028,"LOS ANGELES, CA,UNITED STATES",Los Angeles,United States,,,34.0522342,34.0522342
108,FSCU8535820,Los Angeles,Los Angeles,United States,,,34.0522342,34.0522342
110,TCLU6756170,"LOS ANGELES, CA,UNITED STATES",Los Angeles,United States,,,34.0522342,34.0522342
112,HMMU6044428,"LONG BEACH, CA",Long Beach,United States,,,33.766666666666666,33.766666666666666
113,KOCU4727801,"LONG BEACH, CA",Long Beach,United States,,,33.766666666666666,33.766666666666666
114,KOCU4106907,"LONG BEACH, CA",Long Beach,United States,,,33.766666666666666,33.766666666666666
115,SEGU5332711,"LOS ANGELES (CA), CHINA. PEOPLE'S REPUBLIC",Washington,United States,,,38.9428097,38.9428097
116,KOCU4193389,"LOS ANGELES, CA",Los Angeles,United States,,,34.0522342,34.0522342
117,BSIU9161111,"LOS ANGELES, CA",Los Angeles,United States,,,34.0522342,34.0522342
120,NYKU4108477,"LONG BEACH, CA,UNITED STATES",Long Beach,United States,,,33.766666666666666,33.766666666666666
121,FFAU1843825,"LONG BEACH, CA,UNITED STATES",Long Beach,United States,,,33.766666666666666,33.766666666666666
122,KKFU7923775,"LONG BEACH, CA,UNITED STATES",Long Beach,United States,,,33.766666666666666,33.766666666666666
123,NYKU4803864,"LOS ANGELES, CA,UNITED STATES",Los Angeles,United States,,,34.0522342,34.0522342
124,TCNU6648064,"LOS ANGELES, CA,UNITED STATES",Los Angeles,United States,,,34.0522342,34.0522342
125,TLLU5507334,"LOS ANGELES, CA,UNITED STATES",Los Angeles,United States,,,34.0522342,34.0522342
126,CBHU9161733,Los Angeles,Los Angeles,United States,,,34.0522342,34.0522342
127,SEGU4686032,Los Angeles,Los Angeles,United States,,,34.0522342,34.0522342
128,CSNU6117709,Long Beach,Long Beach,United States,,,33.766666666666666,33.766666666666666
129,TGBU8751446,Los Angeles,Los Angeles,United States,,,34.0522342,34.0522342
130,CBHU8795754,Los Angeles,Los Angeles,United States,,,34.0522342,34.0522342
131,TLLU5474821,"LONG BEACH, CA,UNITED STATES",Long Beach,United States,,,33.766666666666666,33.766666666666666
132,TCLU4999550,"LOS ANGELES, CA",Los Angeles,United States,,,34.0522342,34.0522342
134,TCNU8925527,LOS ANGELES,Los Angeles,United States,,,34.0522342,34.0522342
135,FDCU0634690,"LONG BEACH, CA,UNITED STATES",Long Beach,United States,,,33.766666666666666,33.766666666666666
136,TCNU7773775,"LONG BEACH, CA,UNITED STATES",Long Beach,United States,,,33.766666666666666,33.766666666666666
137,MSMU5139314,LOS ANGELES,Los Angeles,United States,,,34.0522342,34.0522342
138,FFAU1245525,LOS ANGELES,Los Angeles,United States,,,34.0522342,34.0522342
139,KOCU5089851,"LOS ANGELES, CA",Los Angeles,United States,,,34.0522342,34.0522342
140,KOCU4614169,"LONG BEACH, CA",Long Beach,United States,,,33.766666666666666,33.766666666666666
141,KOCU4118050,"LONG BEACH, CA",Long Beach,United States,,,33.766666666666666,33.766666666666666
142,FFAU1812974,"NEW YORK, NY,UNITED STATES",New York,United States,,,40.7,40.7
143,TCKU6188160,Los Angeles,Los Angeles,United States,,,34.0522342,34.0522342
144,CAIU9968345,"LOS ANGELES, CA",Los Angeles,United States,,,34.0522342,34.0522342
145,HMMU6010407,"LOS ANGELES, CA",Los Angeles,United States,,,34.0522342,34.0522342
146,CRSU9367040,"LONG BEACH, CA,UNITED STATES",Long Beach,United States,,,33.766666666666666,33.766666666666666
147,TCLU9689250,"LONG BEACH, CA,UNITED STATES",Long Beach,United States,,,33.766666666666666,33.766666666666666
148,FCIU9285028,"LONG BEACH, CA,UNITED STATES",Long Beach,United States,,,33.766666666666666,33.766666666666666
149,TCNU4554285,"LOS ANGELES (CA), CHINA. PEOPLE'S REPUBLIC",Washington,United States,,,38.9428097,38.9428097
151,CAIU7667960,"LOS ANGELES, CA",Los Angeles,United States,,,34.0522342,34.0522342
153,TCNU5069068,"LOS ANGELES, CA",Los Angeles,United States,,,34.0522342,34.0522342
154,TCLU9826500,"LONG BEACH, CA,UNITED STATES",Long Beach,United States,,,33.766666666666666,33.766666666666666
155,GESU6557620,"LONG BEACH, CA,UNITED STATES",Long Beach,United States,,,33.766666666666666,33.766666666666666
156,TCNU6423598,"LOS ANGELES, CA,UNITED STATES",Los Angeles,United States,,,34.0522342,34.0522342
157,CAIU9323520,"LOS ANGELES, CA,UNITED STATES",Los Angeles,United States,,,34.0522342,34.0522342
158,DFSU7383311,Los Angeles,Los Angeles,United States,,,34.0522342,34.0522342
159,NYKU4425050,"LOS ANGELES, CA,UNITED STATES",Los Angeles,United States,,,34.0522342,34.0522342
160,NYKU4425050,"LONG BEACH, CA,UNITED STATES",Long Beach,United States,,,33.766666666666666,33.766666666666666
161,TRHU4358054,"LONG BEACH, CA,UNITED STATES",Long Beach,United States,,,33.766666666666666,33.766666666666666
162,TLLU5457470,"LONG BEACH, CA,UNITED STATES",Long Beach,United States,,,33.766666666666666,33.766666666666666
163,CAIU9970194,"LOS ANGELES, CA",Los Angeles,United States,,,34.0522342,34.0522342
164,TCNU4863643,"LONG BEACH, CA,UNITED STATES",Long Beach,United States,,,33.766666666666666,33.766666666666666
165,FFAU1676538,LONG BEACH,Long Beach,United States,,,33.766666666666666,33.766666666666666
166,MSDU7646245,LONG BEACH,Long Beach,United States,,,33.766666666666666,33.766666666666666
167,TRHU5320496,"LONG BEACH, CA,UNITED STATES",Long Beach,United States,,,33.766666666666666,33.766666666666666
168,TCNU6860432,"LOS ANGELES, CA,UNITED STATES",Los Angeles,United States,,,34.0522342,34.0522342
169,TRHU4342130,"LOS ANGELES, CA,UNITED STATES",Los Angeles,United States,,,34.0522342,34.0522342
170,NYKU4387936,"LOS ANGELES, CA,UNITED STATES",Los Angeles,United States,,,34.0522342,34.0522342
171,NYKU5162169,"LOS ANGELES, CA,UNITED STATES",Los Angeles,United States,,,34.0522342,34.0522342
172,TCNU9664222,"LOS ANGELES, CA,UNITED STATES",Los Angeles,United States,,,34.0522342,34.0522342
173,TCNU1687160,"Halifax, Nova Scotia, Canada",Halifax,Canada,,,44.64876350000001,44.64876350000001
174,KKTU7887918,"LOS ANGELES, CA,UNITED STATES",Los Angeles,United States,,,34.0522342,34.0522342
175,TCNU8326529,"HALIFAX, NS",Halifax,Canada,,,44.64876350000001,44.64876350000001
176,HAMU1269494,"HALIFAX, NS",Halifax,Canada,,,44.64876350000001,44.64876350000001
178,EMCU9717793,"LOS ANGELES, CA (US)",Los Angeles,United States,,,34.0522342,34.0522342
181,TCNU4502888,"LOS ANGELES, CA (US)",Los Angeles,United States,,,34.0522342,34.0522342
182,EGHU9675306,"LOS ANGELES, CA (US)",Los Angeles,United States,,,34.0522342,34.0522342
184,BEAU4454210,"LOS ANGELES, CA (US)",Los Angeles,United States,,,34.0522342,34.0522342
187,EGHU8249570,"LOS ANGELES, CA (US)",Los Angeles,United States,,,34.0522342,34.0522342
190,DRYU9425143,"LOS ANGELES, CA (US)",Los Angeles,United States,,,34.0522342,34.0522342
191,EGHU9055060,"LOS ANGELES, CA (US)",Los Angeles,United States,,,34.0522342,34.0522342
194,TGBU6892471,"LOS ANGELES, CA (US)",Los Angeles,United States,,,34.0522342,34.0522342
195,BMOU4470982,"LOS ANGELES, CA (US)",Los Angeles,United States,,,34.0522342,34.0522342
200,EITU1034610,"LOS ANGELES, CA (US)",Los Angeles,United States,,,34.0522342,34.0522342
201,EITU9011078,"LOS ANGELES, CA (US)",Los Angeles,United States,,,34.0522342,34.0522342
202,EITU1516891,"LOS ANGELES, CA (US)",Los Angeles,United States,,,34.0522342,34.0522342
203,CBHU8964284,Los Angeles,Los Angeles,United States,,,34.0522342,34.0522342
205,OOLU8302025,Los Angeles,Los Angeles,United States,,,34.0522342,34.0522342
206,TRLU9734229,"LOS ANGELES, CA,UNITED STATES",Los Angeles,United States,,,34.0522342,34.0522342
209,BEAU5456650,"LONG BEACH, CA,UNITED STATES",Long Beach,United States,,,33.766666666666666,33.766666666666666
211,TLLU5500983,"LOS ANGELES, CA,UNITED STATES",Los Angeles,United States,,,34.0522342,34.0522342
212,CAAU5822555,LONG BEACH,Long Beach,United States,,,33.766666666666666,33.766666666666666
213,FDCU0058430,LONG BEACH,Long Beach,United States,,,33.766666666666666,33.766666666666666
214,MEDU4785189,LONG BEACH,Long Beach,United States,,,33.766666666666666,33.766666666666666
215,TEMU8690490,"LOS ANGELES, CA (US)",Los Angeles,United States,,,34.0522342,34.0522342
217,MAGU5298870,"LOS ANGELES, CA (US)",Los Angeles,United States,,,34.0522342,34.0522342
218,TEMU8539859,"LOS ANGELES, CA (US)",Los Angeles,United States,,,34.0522342,34.0522342
220,TCNU2859074,"LOS ANGELES, CA (US)",Los Angeles,United States,,,34.0522342,34.0522342
222,EITU1943722,"LOS ANGELES, CA (US)",Los Angeles,United States,,,34.0522342,34.0522342
224,EITU1038684,"LOS ANGELES, CA (US)",Los Angeles,United States,,,34.0522342,34.0522342
226,EITU9279409,"LOS ANGELES, CA (US)",Los Angeles,United States,,,34.0522342,34.0522342
228,EGHU8259095,"LOS ANGELES, CA (US)",Los Angeles,United States,,,34.0522342,34.0522342
230,EITU9240541,"LOS ANGELES, CA (US)",Los Angeles,United States,,,34.0522342,34.0522342
232,FCIU7063886,"LOS ANGELES, CA (US)",Los Angeles,United States,,,34.0522342,34.0522342
233,TGBU6934767,"LOS ANGELES, CA (US)",Los Angeles,United States,,,34.0522342,34.0522342
234,EITU1795332,"LOS ANGELES, CA (US)",Los Angeles,United States,,,34.0522342,34.0522342
237,FSCU8139795,"LOS ANGELES, CA (US)",Los Angeles,United States,,,34.0522342,34.0522342
239,EITU9056771,"LOS ANGELES, CA (US)",Los Angeles,United States,,,34.0522342,34.0522342
240,EITU9141404,"LOS ANGELES, CA (US)",Los Angeles,United States,,,34.0522342,34.0522342
241,TEMU8914590,"LOS ANGELES, CA (US)",Los Angeles,United States,,,34.0522342,34.0522342
245,TCLU4909963,"LONG BEACH, CA,UNITED STATES",Long Beach,United States,,,33.766666666666666,33.766666666666666
246,TCLU8422227,"LONG BEACH, CA,UNITED STATES",Long Beach,United States,,,33.766666666666666,33.766666666666666
247,TCLU4621283,"LOS ANGELES, CA,UNITED STATES",Los Angeles,United States,,,34.0522342,34.0522342
248,TCNU5898217,"LOS ANGELES, CA,UNITED STATES",Los Angeles,United States,,,34.0522342,34.0522342
249,TCLU5795783,"LOS ANGELES, CA,UNITED STATES",Los Angeles,United States,,,34.0522342,34.0522342
250,CSNU6672701,Los Angeles,Los Angeles,United States,,,34.0522342,34.0522342
251,FFAU3458664,Los Angeles,Los Angeles,United States,,,34.0522342,34.0522342
253,TLLU4486366,Los Angeles,Los Angeles,United States,,,34.0522342,34.0522342
254,KKFU7974514,"NEW YORK, NY,UNITED STATES",New York,United States,,,40.7,40.7
255,CBHU9580581,Los Angeles,Los Angeles,United States,,,34.0522342,34.0522342
256,FFAU1456889,"LOS ANGELES, CA,UNITED STATES",Los Angeles,United States,,,34.0522342,34.0522342
257,NYKU4881189,"LOS ANGELES, CA,UNITED STATES",Los Angeles,United States,,,34.0522342,34.0522342
258,BEAU5423126,"LOS ANGELES, CA,UNITED STATES",Los Angeles,United States,,,34.0522342,34.0522342
260,CCLU7672971,Los Angeles,Los Angeles,United States,,,34.0522342,34.0522342
261,KKFU7891195,"NEW YORK, NY,UNITED STATES",New York,United States,,,40.7,40.7
262,CBHU9418020,Los Angeles,Los Angeles,United States,,,34.0522342,34.0522342
263,FSCU8336264,LONG BEACH,Long Beach,United States,,,33.766666666666666,33.766666666666666
264,MEDU7272868,LONG BEACH,Long Beach,United States,,,33.766666666666666,33.766666666666666
265,BEAU5923306,LONG BEACH,Long Beach,United States,,,33.766666666666666,33.766666666666666
266,MEDU7674701,LONG BEACH,Long Beach,United States,,,33.766666666666666,33.766666666666666
267,INKU6723523,LONG BEACH,Long Beach,United States,,,33.766666666666666,33.766666666666666
268,BEAU5462400,"LONG BEACH, CA,UNITED STATES",Long Beach,United States,,,33.766666666666666,33.766666666666666
269,TCLU3662523,"LONG BEACH, CA,UNITED STATES",Long Beach,United States,,,33.766666666666666,33.766666666666666
270,TCNU4861173,"LONG BEACH, CA,UNITED STATES",Long Beach,United States,,,33.766666666666666,33.766666666666666
271,BEAU5512521,"LONG BEACH, CA,UNITED STATES",Long Beach,United States,,,33.766666666666666,33.766666666666666
272,KKTU7767126,"ROTTERDAM,NETHERLANDS",Rotterdam,Netherlands,,,51.916666666666664,51.916666666666664
273,FFAU2317574,LONG BEACH,Long Beach,United States,,,33.766666666666666,33.766666666666666
274,HMMU6448456,"LOS ANGELES, CA",Los Angeles,United States,,,34.0522342,34.0522342
275,KOCU4477261,"LOS ANGELES, CA",Los Angeles,United States,,,34.0522342,34.0522342
277,CSNU7637011,Long Beach,Long Beach,United States,,,33.766666666666666,33.766666666666666
278,OOLU8448663,Long Beach,Long Beach,United States,,,33.766666666666666,33.766666666666666
279,DFSU6317383,Long Beach,Long Beach,United States,,,33.766666666666666,33.766666666666666
280,KOCU4756857,"BUSAN, KOREA",Busan,South Korea,,,35.13333333333333,35.13333333333333
281,KOCU4006045,"BUSAN, KOREA",Busan,South Korea,,,35.13333333333333,35.13333333333333
283,KOCU4675605,"BUSAN, KOREA",Busan,South Korea,,,35.13333333333333,35.13333333333333
284,GAOU6205117,"BUSAN, KOREA",Busan,South Korea,,,35.13333333333333,35.13333333333333
285,KOCU4566353,"LOS ANGELES, CA",Los Angeles,United States,,,34.0522342,34.0522342
286,DFSU7464650,Los Angeles,Los Angeles,United States,,,34.0522342,34.0522342
289,OOLU7534812,Long Beach,Long Beach,United States,,,33.766666666666666,33.766666666666666
290,SEGU4686032,"LOS ANGELES, CA (US)",Los Angeles,United States,,,34.0522342,34.0522342
295,TLLU4486366,"LOS ANGELES, CA (US)",Los Angeles,United States,,,34.0522342,34.0522342
296,CCLU7672971,"LOS ANGELES, CA (US)",Los Angeles,United States,,,34.0522342,34.0522342
297,CCLU7975366,"LOS ANGELES, CA (US)",Los Angeles,United States,,,34.0522342,34.0522342
298,CBHU8795754,"LOS ANGELES, CA,UNITED STATES",Los Angeles,United States,,,34.0522342,34.0522342
299,TCNU5069068,"LOS ANGELES, CA ,UNITED STATES",Los Angeles,United States,TRAPAC LOS ANGELES,,34.0522342,34.0522342
300,TCNU6423598,"LOS ANGELES, CA ,UNITED STATES",Los Angeles,United States,TRAPAC LOS ANGELES,,34.0522342,34.0522342
301,CAIU9323520,"LOS ANGELES, CA ,UNITED STATES",Los Angeles,United States,TRAPAC LOS ANGELES,,34.0522342,34.0522342
302,HMMU6448456,"LOS ANGELES, CA,UNITED STATES",Los Angeles,United States,,,34.0522342,34.0522342
304,TCNU4932430,"LOS ANGELES, CA,UNITED STATES",Los Angeles,United States,,,34.0522342,34.0522342
305,CBHU5520060,Los Angeles,Los Angeles,United States,,,34.0522342,34.0522342
306,DFSU6265799,"LOS ANGELES, CA,UNITED STATES",Los Angeles,United States,,,34.0522342,34.0522342
308,KOCU4178194,"LONG BEACH, CA, US",Long Beach,United States,,,33.766666666666666,33.766666666666666
309,TCNU6648064,"LOS ANGELES, CA ,UNITED STATES",Los Angeles,United States,YTI (YUSEN TERMINAL INTL),,34.0522342,34.0522342
310,KOCU4118050,"LONG BEACH, CA ,UNITED STATES",Long Beach,United States,ITS (INTL TRANSPORTATION SERVICES),,33.766666666666666,33.766666666666666
312,OOLU8963149,"Los Angeles, Los Angeles, California, United States",Los Angeles,United States,,,34.0522342,34.0522342
313,KOCU4318254,"LONG BEACH, CA ,UNITED STATES",Long Beach,United States,ITS (INTL TRANSPORTATION SERVICES),,33.766666666666666,33.766666666666666
314,TGBU8751446,"LOS ANGELES, CA",Los Angeles,United States,,,34.0522342,34.0522342
315,KOCU4318254,"LONG BEACH, CA,UNITED STATES",Long Beach,United States,,,33.766666666666666,33.766666666666666
316,KOCU4566353,"LOS ANGELES, CA,UNITED STATES",Los Angeles,United States,,,34.0522342,34.0522342
317,KOCU4614169,"LONG BEACH, CA ,UNITED STATES",Long Beach,United States,ITS (INTL TRANSPORTATION SERVICES),,33.766666666666666,33.766666666666666
318,TCKU6188160,"Los Angeles, California, United States",Los Angeles,United States,,,34.0522342,34.0522342
319,TCLU4621283,"LOS ANGELES, CA ,UNITED STATES",Los Angeles,United States,YTI (YUSEN TERMINAL INTL),,34.0522342,34.0522342
320,CSNU6672701,"LOS ANGELES, CA (US)",Los Angeles,United States,,,34.0522342,34.0522342
321,BEAU4467650,"LOS ANGELES, CA (US)",Los Angeles,United States,,,34.0522342,34.0522342
324,OOCU7582481,"Los Angeles, Los Angeles, California, United States",Los Angeles,United States,,,34.0522342,34.0522342
325,OOLU9453643,"Los Angeles, Los Angeles, California, United States",Los Angeles,United States,,,34.0522342,34.0522342
326,OOLU9812701,"Halifax, Nova Scotia, Canada",Halifax,Canada,,,44.64876350000001,44.64876350000001
327,SEGU1282546,"Los Angeles, Los Angeles, California, United States",Los Angeles,United States,,,34.0522342,34.0522342
328,CSNU7635929,"Los Angeles, Los Angeles, California, United States",Los Angeles,United States,,,34.0522342,34.0522342
329,CAIU9443681,"Los Angeles, Los Angeles, California, United States",Los Angeles,United States,,,34.0522342,34.0522342
331,CBHU8964284,"LOS ANGELES, CA,UNITED STATES",Los Angeles,United States,,,34.0522342,34.0522342
333,FFAU3458664,"LOS ANGELES, CA",Los Angeles,United States,,,34.0522342,34.0522342
334,TLLU4486366,"LOS ANGELES, CA, USA",Los Angeles,United States,,,34.0522342,34.0522342
335,CCLU7672971,"LOS ANGELES, CA",Los Angeles,United States,,,34.0522342,34.0522342
336,DFSU6018952,"LONG BEACH, CA, USA",Long Beach,United States,,,33.766666666666666,33.766666666666666
337,TGBU5008421,"Long Beach, Los Angeles, California, United States",Long Beach,United States,,,33.766666666666666,33.766666666666666
338,TCNU8977578,"LOS ANGELES, CA, US",Los Angeles,United States,,,34.0522342,34.0522342
340,CSLU6182287,"LOS ANGELES, CA,UNITED STATES",Los Angeles,United States,,,34.0522342,34.0522342
341,DFSU7284047,"LOS ANGELES, CA",Los Angeles,United States,,,34.0522342,34.0522342
342,TGCU5008699,"NEW YORK, NY",New York,United States,,,40.7,40.7
344,CBHU5520060,"LOS ANGELES, CA",Los Angeles,United States,,,34.0522342,34.0522342
345,TCLU6756170,"LOS ANGELES, CA ,UNITED STATES",Los Angeles,United States,WBCT (WEST BASIN CONTAINER TERMINAL),,34.0522342,34.0522342
346,DFSU6265799,Los Angeles,Los Angeles,United States,,,34.0522342,34.0522342
347,FFAU1245525,Los Angeles,Los Angeles,United States,,,34.0522342,34.0522342
349,OOLU1830587,"Halifax, Nova Scotia, Canada",Halifax,Canada,,,44.64876350000001,44.64876350000001
350,TRHU6250958,"NEW YORK, NY ,UNITED STATES",New York,United States,GCT BAYONNE TERMINAL,,40.7,40.7
351,TRLU7202269,"LOS ANGELES, CA (US)",Los Angeles,United States,,,34.0522342,34.0522342
353,BEAU5423126,"Long Beach, Los Angeles, California, United States",Long Beach,United States,,,33.766666666666666,33.766666666666666
354,OOLU7534812,"LONG BEACH, CA,UNITED STATES",Long Beach,United States,,,33.766666666666666,33.766666666666666
355,TCNU4443635,"LONG BEACH, CA,UNITED STATES",Long Beach,United States,,,33.766666666666666,33.766666666666666
356,EISU2050103,"LOS ANGELES, CA (US)",Los Angeles,United States,,,34.0522342,34.0522342
357,OOCU8175834,Long Beach,Long Beach,United States,,,33.766666666666666,33.766666666666666
358,OOCU8487489,Long Beach,Long Beach,United States,,,33.766666666666666,33.766666666666666
361,EGHU9226455,"LOS ANGELES, CA (US)",Los Angeles,United States,,,34.0522342,34.0522342
362,TEMU6228400,"LOS ANGELES, CA (US)",Los Angeles,United States,,,34.0522342,34.0522342
363,DRYU9537272,"LOS ANGELES, CA (US)",Los Angeles,United States,,,34.0522342,34.0522342
364,TGCU5162467,"LOS ANGELES, CA (US)",Los Angeles,United States,,,34.0522342,34.0522342
365,HMMU6435150,"LOS ANGELES, CA",Los Angeles,United States,,,34.0522342,34.0522342
366,KOCU4747752,"LOS ANGELES, CA",Los Angeles,United States,,,34.0522342,34.0522342
367,SLSU8005843,"LONG BEACH, CA,UNITED STATES",Long Beach,United States,,,33.766666666666666,33.766666666666666
368,FDCU0203332,"LONG BEACH, CA,UNITED STATES",Long Beach,United States,,,33.766666666666666,33.766666666666666
369,MSCU5547065,"LONG BEACH, CA,UNITED STATES",Long Beach,United States,,,33.766666666666666,33.766666666666666
371,KOCU4446260,"LOS ANGELES, CA",Los Angeles,United States,,,34.0522342,34.0522342
372,TRHU2656450,"LOS ANGELES, CA ,UNITED STATES",Los Angeles,United States,TRAPAC LOS ANGELES,,34.0522342,34.0522342
373,CXDU2214039,"LONG BEACH, CA",Long Beach,United States,,,33.766666666666666,33.766666666666666
374,TCNU4863643,"LONG BEACH, CA ,UNITED STATES",Long Beach,United States,UP RAIL - ICTF (INTL CONTAINER TRANSFER FACILITY),,33.766666666666666,33.766666666666666
375,EGHU9383520,"LOS ANGELES, CA (US)",Los Angeles,United States,,,34.0522342,34.0522342
378,BSIU9161111,"LOS ANGELES, CA (US)",Los Angeles,United States,,,34.0522342,34.0522342
380,MRKU7152591,LONG BEACH,Long Beach,United States,,,33.766666666666666,33.766666666666666
381,MSKU3931152,Long Beach,Long Beach,United States,,,33.766666666666666,33.766666666666666
382,TLLU4161885,LONG BEACH,Long Beach,United States,,,33.766666666666666,33.766666666666666
384,CCLU5275424,"LOS ANGELES, CA (US)",Los Angeles,United States,,,34.0522342,34.0522342
385,KOCU4711868,"LOS ANGELES, CA",Los Angeles,United States,,,34.0522342,34.0522342
386,HMMU6010407,"LOS ANGELES, CA (US)",Los Angeles,United States,,,34.0522342,34.0522342
387,SLSU8005843,LONG BEACH,Long Beach,United States,,,33.766666666666666,33.766666666666666
388,FDCU0203332,LONG BEACH,Long Beach,United States,,,33.766666666666666,33.766666666666666
389,MSCU5547065,LONG BEACH,Long Beach,United States,,,33.766666666666666,33.766666666666666
391,CMAU6776655,"LOS ANGELES, CA, US",Los Angeles,United States,,,34.0522342,34.0522342
392,NYKU5238686,"Long Beach, Los Angeles, California, United States",Long Beach,United States,,,33.766666666666666,33.766666666666666
393,CRSU9367040,"LONG BEACH, CA ,UNITED STATES",Long Beach,United States,UP RAIL - ICTF (INTL CONTAINER TRANSFER FACILITY),,33.766666666666666,33.766666666666666
394,FCIU9285028,"LONG BEACH, CA ,UNITED STATES",Long Beach,United States,ITS (INTL TRANSPORTATION SERVICES),,33.766666666666666,33.766666666666666
396,FCIU8815458,LONG BEACH,Long Beach,United States,,,33.766666666666666,33.766666666666666
397,TCNU2861209,LONG BEACH,Long Beach,United States,,,33.766666666666666,33.766666666666666
398,DFSU6018952,LONG BEACH,Long Beach,United States,,,33.766666666666666,33.766666666666666
399,OCGU8061637,"LOS ANGELES, CA (US)",Los Angeles,United States,,,34.0522342,34.0522342
400,FCIU9538785,"LOS ANGELES, CA (US)",Los Angeles,United States,,,34.0522342,34.0522342
401,TGBU6612570,"LOS ANGELES, CA (US)",Los Angeles,United States,,,34.0522342,34.0522342
402,TCLU4909963,"LONG BEACH, CA ,UNITED STATES",Long Beach,United States,ITS (INTL TRANSPORTATION SERVICES),,33.766666666666666,33.766666666666666
403,CSLU1532443,Los Angeles,Los Angeles,United States,,,34.0522342,34.0522342
404,FFAU2879231,Los Angeles,Los Angeles,United States,,,34.0522342,34.0522342
406,TCNU3914480,"LOS ANGELES, CA (US)",Los Angeles,United States,,,34.0522342,34.0522342
407,TRHU4027971,"LOS ANGELES, CA,UNITED STATES",Los Angeles,United States,,,34.0522342,34.0522342
408,TCNU6567002,"LOS ANGELES, CA,UNITED STATES",Los Angeles,United States,,,34.0522342,34.0522342
409,HDMU6308034,"LOS ANGELES, CA",Los Angeles,United States,,,34.0522342,34.0522342
410,TCNU7287264,"LOS ANGELES, CA,UNITED STATES",Los Angeles,United States,,,34.0522342,34.0522342
412,OOLU8616474,"LOS ANGELES, CA (US)",Los Angeles,United States,,,34.0522342,34.0522342
413,CCLU7167331,Los Angeles,Los Angeles,United States,,,34.0522342,34.0522342
414,SEGU5883057,"LOS ANGELES, CA (US)",Los Angeles,United States,,,34.0522342,34.0522342
415,TRHU4736473,Los Angeles,Los Angeles,United States,,,34.0522342,34.0522342
416,BEAU5456650,"LONG BEACH, CA ,UNITED STATES",Long Beach,United States,ITS (INTL TRANSPORTATION SERVICES),,33.766666666666666,33.766666666666666
417,CSNU6400160,"Long Beach, Los Angeles, California, United States",Long Beach,United States,,,33.766666666666666,33.766666666666666
418,TCNU7287264,"LOS ANGELES, CA",Los Angeles,United States,,,34.0522342,34.0522342
419,CSNU7240127,"LOS ANGELES, CA ,UNITED STATES",Los Angeles,United States,TRAPAC LOS ANGELES,,34.0522342,34.0522342
420,CBHU9441919,Los Angeles,Los Angeles,United States,,,34.0522342,34.0522342
421,CBHU9109057,"LOS ANGELES, CA (US)",Los Angeles,United States,,,34.0522342,34.0522342
422,CCLU7729146,Los Angeles,Los Angeles,United States,,,34.0522342,34.0522342
423,CSNU1910983,Los Angeles,Los Angeles,United States,,,34.0522342,34.0522342
424,CCLU5275424,Los Angeles,Los Angeles,United States,,,34.0522342,34.0522342
425,FFAU1530672,"LOS ANGELES, CA (US)",Los Angeles,United States,,,34.0522342,34.0522342
3287,TLLU4161885,"Long Beach, California, United States",Long Beach,United States,,,33.766666666666666,33.766666666666666
5657,FFAU3458664,"LOS ANGELES, CA ,UNITED STATES",Los Angeles,United States,YTI (YUSEN TERMINAL INTL),,34.0522342,34.0522342
5761,FSCU8535820,"LOS ANGELES, CA ,UNITED STATES",Los Angeles,United States,YTI (YUSEN TERMINAL INTL),,34.0522342,34.0522342
8804,BEAU2044860,"LOS ANGELES, CA (US)",Los Angeles,United States,,,34.0522342,34.0522342
8873,TEMU7006813,"LONG BEACH, CA, USA",Long Beach,United States,,,33.766666666666666,33.766666666666666
13160,HMMU6435150,"LOS ANGELES, CA (US)",Los Angeles,United States,,,34.0522342,34.0522342
15777,CCLU5275424,LONG BEACH,Long Beach,United States,,,33.766666666666666,33.766666666666666
18535,HMMU6294290,"LOS ANGELES, CA (US)",Los Angeles,United States,,,34.0522342,34.0522342
18550,FFAU1947373,"LONG BEACH, CA",Long Beach,United States,,,33.766666666666666,33.766666666666666
18772,KOCU5120160,"LOS ANGELES, CA (US)",Los Angeles,United States,,,34.0522342,34.0522342
20897,BMOU4138638,"LONG BEACH, CA",Long Beach,United States,,,33.766666666666666,33.766666666666666
21129,BMOU4577672,"LOS ANGELES, CA (US)",Los Angeles,United States,,,34.0522342,34.0522342
21144,KOCU4446260,"LOS ANGELES, CA (US)",Los Angeles,United States,,,34.0522342,34.0522342
24415,TEMU6710290,"NEW YORK, NY",New York,United States,,,40.7,40.7
27254,TLLU4428333,Long Beach,Long Beach,United States,,,33.766666666666666,33.766666666666666
27277,OOLU7972125,"Long Beach, Los Angeles, California, United States",Long Beach,United States,,,33.766666666666666,33.766666666666666
27278,OOLU8295076,"Long Beach, Los Angeles, California, United States",Long Beach,United States,,,33.766666666666666,33.766666666666666
27279,TLLU2061402,"Long Beach, Los Angeles, California, United States",Long Beach,United States,,,33.766666666666666,33.766666666666666
27280,OOLU8929524,Long Beach,Long Beach,United States,,,33.766666666666666,33.766666666666666
31338,OOCU7093407,"LOS ANGELES, CA (US)",Los Angeles,United States,,,34.0522342,34.0522342
64989,FFAU2893970,"Los Angeles, Los Angeles, California, United States",Los Angeles,United States,,,34.0522342,34.0522342
64991,CSNU7288239,"LOS ANGELES, CA (US)",Los Angeles,United States,,,34.0522342,34.0522342
65968,KOCU4586977,"LOS ANGELES, CA",Los Angeles,United States,,,34.0522342,34.0522342
66015,NYKU4433163,"LOS ANGELES, CA, UNITED STATES",Los Angeles,United States,,,34.0522342,34.0522342
66018,GCXU5425572,"LOS ANGELES, CA, UNITED STATES",Los Angeles,United States,,,34.0522342,34.0522342
66621,CSNU7230330,Los Angeles,Los Angeles,United States,,,34.0522342,34.0522342
67337,CBHU9418020,"LOS ANGELES, CA",Los Angeles,United States,,,34.0522342,34.0522342
67859,TCNU2340453,"LOS ANGELES, CA",Los Angeles,United States,,,34.0522342,34.0522342
68495,CBHU8964284,"Los Angeles, California, United States",Los Angeles,United States,,,34.0522342,34.0522342
68717,TGHU8920321,"LOS ANGELES, CA (US)",Los Angeles,United States,,,34.0522342,34.0522342
68877,TEMU7445020,"LOS ANGELES, CA",Los Angeles,United States,,,34.0522342,34.0522342
69985,CSNU6563871,Los Angeles,Los Angeles,United States,,,34.0522342,34.0522342
70437,GAOU6357737,"Long Beach, Los Angeles, California, United States",Long Beach,United States,,,33.766666666666666,33.766666666666666
70605,TCNU7409172,"LONG BEACH, CA, USA",Long Beach,United States,,,33.766666666666666,33.766666666666666
70896,TRHU4027971,"Los Angeles, California, United States",Los Angeles,United States,,,34.0522342,34.0522342
71462,BSIU9813204,"LOS ANGELES, CA, UNITED STATES",Los Angeles,United States,,,34.0522342,34.0522342
71738,KOCU4745322,"Los Angeles, California, United States",Los Angeles,United States,,,34.0522342,34.0522342
71850,OOLU8929524,"LONG BEACH, US",Long Beach,United States,,,33.766666666666666,33.766666666666666
72217,TRHU7905480,"LOS ANGELES, US",Los Angeles,United States,,,34.0522342,34.0522342
72240,OOCU7023014,"Kaohsiung, Taiwan (China)",Kaohsiung,Taiwan,,,22.57185320867625,22.57185320867625
72256,ONEU0075623,"LOS ANGELES, CA, UNITED STATES",Los Angeles,United States,,,34.0522342,34.0522342
72257,MSMU8778509,"LOS ANGELES, CA (US)",Los Angeles,United States,,,34.0522342,34.0522342
72911,BMOU4138638,"Long Beach, Los Angeles, California, United States",Long Beach,United States,,,33.766666666666666,33.766666666666666
73650,TRHU7905480,"LOS ANGELES, CA (US)",Los Angeles,United States,,,34.0522342,34.0522342
74280,HMMU6006860,"LOS ANGELES, CA (US)",Los Angeles,United States,,,34.0522342,34.0522342
74909,MSMU8778509,"LOS ANGELES, US",Los Angeles,United States,,,34.0522342,34.0522342
74953,TCNU7287264,"LONG BEACH, CA",Long Beach,United States,,,33.766666666666666,33.766666666666666
75143,HLXU8376296,"NEW YORK, NY, UNITED STATES",New York,United States,GCT BAYONNE TERMINAL,,40.7,40.7
76086,CAIU9428331,"LOS ANGELES, CA",Los Angeles,United States,,,34.0522342,34.0522342
76087,BEAU6164082,"LOS ANGELES, CA",Los Angeles,United States,,,34.0522342,34.0522342
76088,CSNU1076762,"LOS ANGELES, CA",Los Angeles,United States,,,34.0522342,34.0522342
76089,CBHU4443061,"LOS ANGELES, CA",Los Angeles,United States,,,34.0522342,34.0522342
76108,OOLU7500010,"LOS ANGELES, CA",Los Angeles,United States,,,34.0522342,34.0522342
76109,OOLU6873160,"LONG BEACH, US",Long Beach,United States,,,33.766666666666666,33.766666666666666
76142,DRYU9821205,"LOS ANGELES, CA (US)",Los Angeles,United States,,,34.0522342,34.0522342
76144,EISU9432427,"LOS ANGELES, CA (US)",Los Angeles,United States,,,34.0522342,34.0522342
76148,BMOU4580378,"LOS ANGELES, CA",Los Angeles,United States,,,34.0522342,34.0522342
76150,FFAU2740312,"LOS ANGELES, CA",Los Angeles,United States,,,34.0522342,34.0522342
76188,NYKU0801185,"LOS ANGELES, CA, UNITED STATES",Los Angeles,United States,,,34.0522342,34.0522342
76189,FFAU1827172,"LONG BEACH, CA, UNITED STATES",Long Beach,United States,,,33.766666666666666,33.766666666666666
76190,OOCU7821056,"LOS ANGELES, CA, UNITED STATES",Los Angeles,United States,TRAPAC LOS ANGELES,,34.0522342,34.0522342
76191,TGBU8717333,"LOS ANGELES, CA, UNITED STATES",Los Angeles,United States,TRAPAC LOS ANGELES,,34.0522342,34.0522342
76192,CCLU7277128,"LOS ANGELES, CA, UNITED STATES",Los Angeles,United States,TRAPAC LOS ANGELES,,34.0522342,34.0522342
76193,TEMU0096163,Los Angeles,Los Angeles,United States,,,34.0522342,34.0522342
76213,BEAU6239197,"LOS ANGELES, CA",Los Angeles,United States,,,34.0522342,34.0522342
76214,BSIU9197599,"LOS ANGELES, CA",Los Angeles,United States,,,34.0522342,34.0522342
76215,BMOU6596840,"Los Angeles, California, United States",Los Angeles,United States,,,34.0522342,34.0522342
76216,EITU1070069,"LOS ANGELES, CA (US)",Los Angeles,United States,,,34.0522342,34.0522342
76217,EGHU8309663,"LOS ANGELES, CA (US)",Los Angeles,United States,,,34.0522342,34.0522342
76218,EMCU8253018,"LOS ANGELES, CA (US)",Los Angeles,United States,,,34.0522342,34.0522342
76219,FFAU2095380,"LOS ANGELES, CA (US)",Los Angeles,United States,,,34.0522342,34.0522342
76308,HMMU9035862,"LOS ANGELES, CA, UNITED STATES",Los Angeles,United States,,,34.0522342,34.0522342
77042,TEMU6710290,"NEW YORK, NY, UNITED STATES",New York,United States,MAHER NEWARK,,40.7,40.7
77049,MEDU2952100,"LONG BEACH, CA, UNITED STATES",Long Beach,United States,PIER T - TTI (TOTAL TERMINALS INTL),,33.766666666666666,33.766666666666666
77093,KOCU4586977,"LOS ANGELES, CA, UNITED STATES",Los Angeles,United States,,,34.0522342,34.0522342
77120,CCLU7771758,"Los Angeles, California, United States",Los Angeles,United States,,,34.0522342,34.0522342
77121,CBHU9131549,Los Angeles,Los Angeles,United States,,,34.0522342,34.0522342
77217,NYKU0801185,"Los Angeles, California, United States",Los Angeles,United States,,,34.0522342,34.0522342
77220,CCLU7277128,"Los Angeles, California, United States",Los Angeles,United States,,,34.0522342,34.0522342
77222,TEMU0096163,"LOS ANGELES, CA (US)",Los Angeles,United States,,,34.0522342,34.0522342
77244,CSNU6247261,Los Angeles,Los Angeles,United States,,,34.0522342,34.0522342
77445,CSNU7288239,Los Angeles,Los Angeles,United States,,,34.0522342,34.0522342
77554,OOCU8457756,"Long Beach, California, United States",Long Beach,United States,,,33.766666666666666,33.766666666666666
78097,CSNU6563871,"LOS ANGELES, CA (US)",Los Angeles,United States,,,34.0522342,34.0522342
78143,TGBU8940990,"LOS ANGELES, CA (US)",Los Angeles,United States,,,34.0522342,34.0522342
78208,FFAU2740312,"LOS ANGELES, CA (US)",Los Angeles,United States,,,34.0522342,34.0522342
78270,CCLU5293639,"LOS ANGELES, CA (US)",Los Angeles,United States,,,34.0522342,34.0522342
78397,FFAU2893970,Los Angeles,Los Angeles,United States,,,34.0522342,34.0522342
78590,OOCU7519679,"LONG BEACH, US",Long Beach,United States,,,33.766666666666666,33.766666666666666
78774,FFAU3473186,"LONG BEACH, US",Long Beach,United States,,,33.766666666666666,33.766666666666666
78775,CCLU7001567,"LOS ANGELES, CA (US)",Los Angeles,United States,,,34.0522342,34.0522342
78776,CCLU7244607,"LOS ANGELES, CA, UNITED STATES",Los Angeles,United States,,,34.0522342,34.0522342
78778,OOLU6968310,"LOS ANGELES, CA",Los Angeles,United States,,,34.0522342,34.0522342
78779,MSMU5135664,"LOS ANGELES, US",Los Angeles,United States,,,34.0522342,34.0522342
78904,DFSU4351748,"LOS ANGELES, CA (US)",Los Angeles,United States,,,34.0522342,34.0522342
78954,CBHU1950720,Los Angeles,Los Angeles,United States,,,34.0522342,34.0522342
78955,CCLU6693619,Los Angeles,Los Angeles,United States,,,34.0522342,34.0522342
79211,KOCU5066460,"LOS ANGELES, CA (US)",Los Angeles,United States,,,34.0522342,34.0522342
79213,CAIU7492769,"LOS ANGELES, CA (US)",Los Angeles,United States,,,34.0522342,34.0522342
79587,FFAU3473186,Long Beach,Long Beach,United States,,,33.766666666666666,33.766666666666666
79589,CCLU7001567,"LOS ANGELES, CA",Los Angeles,United States,,,34.0522342,34.0522342
79591,CCLU7244607,"LOS ANGELES, CA",Los Angeles,United States,,,34.0522342,34.0522342
79772,CCLU4750108,"LOS ANGELES, CA",Los Angeles,United States,,,34.0522342,34.0522342
79956,OOLU8623982,"Ho Chi Minh (Cat Lai), Vietnam",Cát Lái,Vietnam,,,10.766666666666667,10.766666666666667
80198,MSCU5863905,"LONG BEACH, CA, UNITED STATES",Long Beach,United States,,,33.766666666666666,33.766666666666666
80493,TGBU4485040,"LOS ANGELES, CA, UNITED STATES",Los Angeles,United States,,,34.0522342,34.0522342
80494,BSIU9860150,"Long Beach, California, United States",Long Beach,United States,,,33.766666666666666,33.766666666666666
80496,OOCU7110799,"Halifax, Nova Scotia, Canada",Halifax,Canada,,,44.64876350000001,44.64876350000001
80516,UACU5378789,"LOS ANGELES, CA",Los Angeles,United States,,,34.0522342,34.0522342
81253,GAOU6357737,"LONG BEACH, CA, UNITED STATES",Long Beach,United States,,,33.766666666666666,33.766666666666666
81384,TCNU7409172,"LONG BEACH, CA",Long Beach,United States,,,33.766666666666666,33.766666666666666
81599,BSIU9860150,"LONG BEACH, CA, UNITED STATES",Long Beach,United States,,,33.766666666666666,33.766666666666666
81690,OOLU6968310,"LOS ANGELES, CA (US)",Los Angeles,United States,,,34.0522342,34.0522342
82157,TGBU8717333,"Los Angeles, California, United States",Los Angeles,United States,,,34.0522342,34.0522342
82249,CXDU1341996,"LOS ANGELES, CA, UNITED STATES",Los Angeles,United States,,,34.0522342,34.0522342
82250,CSNU7499186,"Halifax, Nova Scotia, Canada",Halifax,Canada,,,44.64876350000001,44.64876350000001
82251,FCIU2548945,"LONG BEACH, US",Long Beach,United States,,,33.766666666666666,33.766666666666666
82252,SEGU6388696,"SIHANOUKVILLE PORT, Cambodia",Kâmpóng Saôm,Cambodia,,,10.6,10.6
83168,BEAU6164082,"LOS ANGELES, CA, UNITED STATES",Los Angeles,United States,,,34.0522342,34.0522342
83170,CBHU9131549,"LOS ANGELES, CA, UNITED STATES",Los Angeles,United States,WBCT (WEST BASIN CONTAINER TERMINAL),,34.0522342,34.0522342
83463,TLLU4428333,"LONG BEACH, CA, UNITED STATES",Long Beach,United States,ITS (INTL TRANSPORTATION SERVICES),,33.766666666666666,33.766666666666666
84408,CSNU6247261,"Los Angeles, California, United States",Los Angeles,United States,,,34.0522342,34.0522342
86295,SEGU4870646,"LONG BEACH, CA",Long Beach,United States,,,33.766666666666666,33.766666666666666
86508,FDCU0203332,"Long Beach, Los Angeles, California, United States",Long Beach,United States,,,33.766666666666666,33.766666666666666
86813,DFSU7430265,"LOS ANGELES, CA, UNITED STATES",Los Angeles,United States,,,34.0522342,34.0522342
86973,TRHU4736473,"LOS ANGELES, CA, US",Los Angeles,United States,,,34.0522342,34.0522342
87007,FFAU3473186,"LONG BEACH, CA",Long Beach,United States,,,33.766666666666666,33.766666666666666
87014,OOCU7673853,"LOS ANGELES, CA",Los Angeles,United States,,,34.0522342,34.0522342
87078,CSLU6338385,"LONG BEACH, CA",Long Beach,United States,,,33.766666666666666,33.766666666666666
87095,CSLU1739852,Los Angeles,Los Angeles,United States,,,34.0522342,34.0522342
87116,OOLU7500010,"LOS ANGELES, CA (US)",Los Angeles,United States,,,34.0522342,34.0522342
87140,TCNU3988311,Long Beach,Long Beach,United States,,,33.766666666666666,33.766666666666666
87399,SEGU4870646,"Long Beach, Los Angeles, California, United States",Long Beach,United States,,,33.766666666666666,33.766666666666666
87566,CBHU9109057,Los Angeles,Los Angeles,United States,,,34.0522342,34.0522342
87773,CCLU7729146,"Los Angeles, California, United States",Los Angeles,United States,,,34.0522342,34.0522342
87832,OOLU8616474,Los Angeles,Los Angeles,United States,,,34.0522342,34.0522342
87921,TGBU3129070,"LONG BEACH, US",Long Beach,United States,,,33.766666666666666,33.766666666666666
88192,CSLU6338385,"Long Beach, California, United States",Long Beach,United States,,,33.766666666666666,33.766666666666666
88198,CSNU6307592,"LONG BEACH, CA, UNITED STATES",Long Beach,United States,ITS (INTL TRANSPORTATION SERVICES),,33.766666666666666,33.766666666666666
88348,BMOU6596840,"LOS ANGELES, CA, UNITED STATES",Los Angeles,United States,,,34.0522342,34.0522342
88489,FSCU8953353,"SAVANNAH, GA",Savannah,United States,,,32.0808989,32.0808989
88729,FDCU0203332,"LONG BEACH, CA, UNITED STATES",Long Beach,United States,,,33.766666666666666,33.766666666666666
88970,MSMU7016880,"LONG BEACH, US",Long Beach,United States,,,33.766666666666666,33.766666666666666
88971,IPXU3962060,"LONG BEACH, US",Long Beach,United States,,,33.766666666666666,33.766666666666666
89301,BSIU9288071,"LOS ANGELES, CA",Los Angeles,United States,,,34.0522342,34.0522342
89745,MSCU5547065,"Long Beach, Los Angeles, California, United States",Long Beach,United States,,,33.766666666666666,33.766666666666666
90084,OOLU7500010,"LOS ANGELES, CA, UNITED STATES",Los Angeles,United States,,,34.0522342,34.0522342
90393,GAOU6357737,"LONG BEACH, CA",Long Beach,United States,,,33.766666666666666,33.766666666666666
90632,FFAU2748838,Gaffney,Gaffney,United States,,,35.0717945,35.0717945
90633,OOLU9717617,"Long Beach, Los Angeles, California, United States",Long Beach,United States,,,33.766666666666666,33.766666666666666
90745,KKFU8138859,"LONG BEACH, CA, UNITED STATES",Long Beach,United States,,,33.766666666666666,33.766666666666666
90747,FFAU3418065,"Long Beach, Los Angeles, California, United States",Long Beach,United States,,,33.766666666666666,33.766666666666666
91196,TGBU8940990,Los Angeles,Los Angeles,United States,,,34.0522342,34.0522342
91201,CSLU1739852,"LOS ANGELES, CA, UNITED STATES",Los Angeles,United States,LAX STREET TURN,,34.0522342,34.0522342
91460,BSIU9288071,"LOS ANGELES, CA, UNITED STATES",Los Angeles,United States,LAX STREET TURN,,34.0522342,34.0522342
91463,HMMU6006860,"LOS ANGELES, CA, UNITED STATES",Los Angeles,United States,LAX STREET TURN,,34.0522342,34.0522342
91542,OOLU8929524,"Long Beach, California, United States",Long Beach,United States,,,33.766666666666666,33.766666666666666
92141,OOLU8610007,"Long Beach, Los Angeles, California, United States",Long Beach,United States,,,33.766666666666666,33.766666666666666
92152,SMLU7991300,"Vancouver, British Columbia, Canada",Vancouver,Canada,,,49.2827291,49.2827291
92199,DFSU4351748,"LOS ANGELES, CA, US",Los Angeles,United States,,,34.0522342,34.0522342
92251,CBHU1950720,"LOS ANGELES, CA (US)",Los Angeles,United States,,,34.0522342,34.0522342
92253,CCLU4750108,"LOS ANGELES, CA, UNITED STATES",Los Angeles,United States,,,34.0522342,34.0522342
92255,CCLU6693619,"LOS ANGELES, CA",Los Angeles,United States,,,34.0522342,34.0522342
92342,OOCU7673853,Los Angeles,Los Angeles,United States,,,34.0522342,34.0522342
92858,EITU1475128,"LOS ANGELES, CA (US)",Los Angeles,United States,,,34.0522342,34.0522342
92859,EITU1395681,"LOS ANGELES, CA (US)",Los Angeles,United States,,,34.0522342,34.0522342
92860,YMMU6130647,"LOS ANGELES, CA, USA",Los Angeles,United States,,,34.0522342,34.0522342
92868,FDCU0269411,"LONG BEACH, US",Long Beach,United States,,,33.766666666666666,33.766666666666666
92869,TGCU5004780,"LONG BEACH, US",Long Beach,United States,,,33.766666666666666,33.766666666666666
93463,CCLU4992375,"LONG BEACH, CA, UNITED STATES",Long Beach,United States,ITS (INTL TRANSPORTATION SERVICES),,33.766666666666666,33.766666666666666
94350,CSNU6198336,Hong Kong,Hong Kong,Hong Kong,,,22.3193039,22.3193039
94550,FCIU2548945,"LONG BEACH, CA, UNITED STATES",Long Beach,United States,ITS (INTL TRANSPORTATION SERVICES),,33.766666666666666,33.766666666666666
94684,FFAU2740312,"LOS ANGELES, CA, UNITED STATES",Los Angeles,United States,,,34.0522342,34.0522342
94696,KOCU5066460,"LOS ANGELES, CA, UNITED STATES",Los Angeles,United States,,,34.0522342,34.0522342
94805,TLLU4060827,Hong Kong,Hong Kong,Hong Kong,,,22.3193039,22.3193039
94863,SLSU8005843,"LONG BEACH, CA, UNITED STATES",Long Beach,United States,,,33.766666666666666,33.766666666666666
